{
  "type": "Feature",
  "properties": {
    "id": "santa-s-trail",
    "km": [
      [
        0.0,
        0.014,
        0.038,
        0.086,
        0.097,
        0.136,
        0.196,
        0.236,
        0.25,
        0.269,
        0.292,
        0.305,
        0.369,
        0.427,
        0.565,
        0.611,
        0.715,
        0.724,
        0.751,
        0.777,
        0.803,
        0.879,
        0.915,
        0.96,
        0.989,
        1.046,
        1.085,
        1.104,
        1.133,
        1.143,
        1.167,
        1.186,
        1.207,
        1.251,
        1.273,
        1.324,
        1.337,
        1.341,
        1.385,
        1.418,
        1.422,
        1.476,
        1.495,
        1.515,
        1.586,
        1.607,
        1.624,
        1.647,
        1.689,
        1.743,
        1.761,
        1.811,
        1.868,
        1.911,
        2.218,
        2.331,
        2.446,
        2.491,
        2.508,
        2.52,
        2.535,
        2.553,
        2.796,
        2.819,
        2.84,
        2.892,
        2.93,
        2.957,
        2.995,
        3.047,
        3.082,
        3.102,
        3.125,
        3.168,
        3.185
      ],
      [
        3.185,
        3.262,
        3.288,
        3.292,
        3.306,
        3.341,
        3.379,
        3.389,
        3.4
      ],
      [
        3.4,
        3.412,
        3.422,
        3.453,
        3.49,
        3.511,
        3.527,
        3.534,
        3.553,
        3.559,
        3.612,
        3.637,
        3.649
      ],
      [
        3.649,
        3.662,
        3.675,
        3.69,
        3.699,
        3.722,
        3.749,
        3.762,
        3.793,
        3.881,
        3.905,
        3.935,
        3.964,
        4.001,
        4.033,
        4.064,
        4.087,
        4.113,
        4.143,
        4.226,
        4.265,
        4.291,
        4.309,
        4.335,
        4.369,
        4.374,
        4.39
      ]
    ]
  },
  "geometry": {
    "type": "MultiLineString",
    "coordinates": [
      [
        [
          25.844252,
          66.542411
        ],
        [
          25.844247,
          66.542282
        ],
        [
          25.844384,
          66.542073
        ],
        [
          25.844382,
          66.54165
        ],
        [
          25.844359,
          66.541551
        ],
        [
          25.84406,
          66.541216
        ],
        [
          25.844301,
          66.540689
        ],
        [
          25.843662,
          66.540442
        ],
        [
          25.843696,
          66.540317
        ],
        [
          25.84393,
          66.540171
        ],
        [
          25.843779,
          66.539974
        ],
        [
          25.843784,
          66.539853
        ],
        [
          25.845071,
          66.539609
        ],
        [
          25.846349,
          66.539708
        ],
        [
          25.849455,
          66.539734
        ],
        [
          25.850371,
          66.53953
        ],
        [
          25.852101,
          66.538908
        ],
        [
          25.852117,
          66.538825
        ],
        [
          25.851771,
          66.538628
        ],
        [
          25.851237,
          66.538532
        ],
        [
          25.850784,
          66.538392
        ],
        [
          25.849078,
          66.538307
        ],
        [
          25.848327,
          66.538186
        ],
        [
          25.847542,
          66.537928
        ],
        [
          25.846908,
          66.537888
        ],
        [
          25.845846,
          66.537591
        ],
        [
          25.844987,
          66.53754
        ],
        [
          25.844622,
          66.537447
        ],
        [
          25.84422,
          66.537244
        ],
        [
          25.844028,
          66.5372
        ],
        [
          25.843495,
          66.537213
        ],
        [
          25.843087,
          66.537162
        ],
        [
          25.842619,
          66.537201
        ],
        [
          25.841708,
          66.537054
        ],
        [
          25.841203,
          66.537044
        ],
        [
          25.840385,
          66.53672
        ],
        [
          25.840394,
          66.536608
        ],
        [
          25.840335,
          66.536579
        ],
        [
          25.839431,
          66.536738
        ],
        [
          25.838694,
          66.536702
        ],
        [
          25.838639,
          66.53667
        ],
        [
          25.838627,
          66.536187
        ],
        [
          25.838786,
          66.536033
        ],
        [
          25.838863,
          66.535853
        ],
        [
          25.83831,
          66.535254
        ],
        [
          25.838239,
          66.535069
        ],
        [
          25.838334,
          66.534924
        ],
        [
          25.838678,
          66.534765
        ],
        [
          25.839053,
          66.534418
        ],
        [
          25.839262,
          66.533945
        ],
        [
          25.839257,
          66.533785
        ],
        [
          25.83849,
          66.533456
        ],
        [
          25.83848,
          66.532941
        ],
        [
          25.838354,
          66.532563
        ],
        [
          25.835309,
          66.530091
        ],
        [
          25.834016,
          66.529222
        ],
        [
          25.832889,
          66.52829
        ],
        [
          25.832354,
          66.527944
        ],
        [
          25.832259,
          66.527797
        ],
        [
          25.83227,
          66.52769
        ],
        [
          25.832151,
          66.52757
        ],
        [
          25.831856,
          66.527448
        ],
        [
          25.829697,
          66.525451
        ],
        [
          25.829539,
          66.52525
        ],
        [
          25.829257,
          66.525107
        ],
        [
          25.828154,
          66.524934
        ],
        [
          25.827322,
          66.524912
        ],
        [
          25.826735,
          66.524989
        ],
        [
          25.825877,
          66.525004
        ],
        [
          25.824738,
          66.524916
        ],
        [
          25.823989,
          66.524807
        ],
        [
          25.823642,
          66.524921
        ],
        [
          25.823526,
          66.525123
        ],
        [
          25.823544,
          66.525503
        ],
        [
          25.823431,
          66.525653
        ]
      ],
      [
        [
          25.851859,
          66.53866
        ],
        [
          25.85358,
          66.538581
        ],
        [
          25.854134,
          66.538502
        ],
        [
          25.854148,
          66.538471
        ],
        [
          25.85385,
          66.538439
        ],
        [
          25.85453,
          66.538267
        ],
        [
          25.855363,
          66.538198
        ],
        [
          25.855518,
          66.53814
        ],
        [
          25.855781,
          66.538158
        ]
      ],
      [
        [
          25.855785,
          66.538145
        ],
        [
          25.855573,
          66.538079
        ],
        [
          25.855357,
          66.538073
        ],
        [
          25.854738,
          66.538192
        ],
        [
          25.853896,
          66.538196
        ],
        [
          25.853522,
          66.538306
        ],
        [
          25.853168,
          66.538286
        ],
        [
          25.853167,
          66.538353
        ],
        [
          25.853544,
          66.538436
        ],
        [
          25.85357,
          66.538483
        ],
        [
          25.852403,
          66.53859
        ],
        [
          25.851862,
          66.538521
        ],
        [
          25.851927,
          66.538625
        ]
      ],
      [
        [
          25.855871,
          66.538135
        ],
        [
          25.855913,
          66.538016
        ],
        [
          25.855864,
          66.537901
        ],
        [
          25.855653,
          66.537805
        ],
        [
          25.855795,
          66.537744
        ],
        [
          25.856302,
          66.537722
        ],
        [
          25.856198,
          66.537483
        ],
        [
          25.855947,
          66.537412
        ],
        [
          25.855247,
          66.537412
        ],
        [
          25.853337,
          66.53761
        ],
        [
          25.852806,
          66.537603
        ],
        [
          25.85218,
          66.537491
        ],
        [
          25.851706,
          66.537314
        ],
        [
          25.850985,
          66.537154
        ],
        [
          25.85047,
          66.536955
        ],
        [
          25.849807,
          66.536864
        ],
        [
          25.849291,
          66.536863
        ],
        [
          25.848767,
          66.536748
        ],
        [
          25.848284,
          66.53657
        ],
        [
          25.846431,
          66.53671
        ],
        [
          25.845851,
          66.536973
        ],
        [
          25.845751,
          66.537194
        ],
        [
          25.845372,
          66.537257
        ],
        [
          25.84479,
          66.537239
        ],
        [
          25.844241,
          66.537024
        ],
        [
          25.84415,
          66.537049
        ],
        [
          25.844062,
          66.53719
        ]
      ]
    ]
  }
}
