<?xml version="1.0" encoding="UTF-8"?>
<gpx xmlns="http://www.topografix.com/GPX/1/1" xmlns:xsi="http://www.w3.org/2001/XMLSchema-instance" xsi:schemaLocation="http://www.topografix.com/GPX/1/1 http://www.topografix.com/GPX/1/1/gpx.xsd" version="1.1" creator="hubandcircles-manager">
  <trk>
    <name>Ounasvaara Trail Center - Loimu</name>
    <trkseg>
      <trkpt lat="66.50211" lon="25.787303">
        <ele>202.4</ele>
      </trkpt>
      <trkpt lat="66.502234" lon="25.787273">
        <ele>200.4</ele>
      </trkpt>
      <trkpt lat="66.50239" lon="25.78623">
        <ele>199.1</ele>
      </trkpt>
      <trkpt lat="66.502406" lon="25.785812">
        <ele>199.3</ele>
      </trkpt>
      <trkpt lat="66.502722" lon="25.784661">
        <ele>196.7</ele>
      </trkpt>
      <trkpt lat="66.503038" lon="25.781923">
        <ele>193.1</ele>
      </trkpt>
      <trkpt lat="66.503047" lon="25.781587">
        <ele>192.5</ele>
      </trkpt>
      <trkpt lat="66.502958" lon="25.780845">
        <ele>192.1</ele>
      </trkpt>
      <trkpt lat="66.503101" lon="25.779893">
        <ele>191.0</ele>
      </trkpt>
      <trkpt lat="66.503202" lon="25.779712">
        <ele>190.6</ele>
      </trkpt>
      <trkpt lat="66.503518" lon="25.779643">
        <ele>188.1</ele>
      </trkpt>
      <trkpt lat="66.503567" lon="25.779669">
        <ele>187.4</ele>
      </trkpt>
      <trkpt lat="66.503652" lon="25.779917">
        <ele>186.8</ele>
      </trkpt>
      <trkpt lat="66.503828" lon="25.780054">
        <ele>185.6</ele>
      </trkpt>
      <trkpt lat="66.504176" lon="25.779658">
        <ele>183.4</ele>
      </trkpt>
      <trkpt lat="66.504253" lon="25.779492">
        <ele>182.4</ele>
      </trkpt>
      <trkpt lat="66.504415" lon="25.778541">
        <ele>179.7</ele>
      </trkpt>
      <trkpt lat="66.504495" lon="25.778913">
        <ele>179.1</ele>
      </trkpt>
      <trkpt lat="66.504532" lon="25.779621">
        <ele>178.4</ele>
      </trkpt>
      <trkpt lat="66.504568" lon="25.779649">
        <ele>177.7</ele>
      </trkpt>
      <trkpt lat="66.504846" lon="25.778086">
        <ele>172.7</ele>
      </trkpt>
      <trkpt lat="66.504873" lon="25.777428">
        <ele>171.6</ele>
      </trkpt>
      <trkpt lat="66.504993" lon="25.777057">
        <ele>169.0</ele>
      </trkpt>
      <trkpt lat="66.505064" lon="25.776557">
        <ele>167.8</ele>
      </trkpt>
      <trkpt lat="66.505174" lon="25.775529">
        <ele>164.7</ele>
      </trkpt>
      <trkpt lat="66.505166" lon="25.775108">
        <ele>164.5</ele>
      </trkpt>
      <trkpt lat="66.505577" lon="25.77334">
        <ele>156.3</ele>
      </trkpt>
      <trkpt lat="66.505627" lon="25.772431">
        <ele>155.7</ele>
      </trkpt>
      <trkpt lat="66.505867" lon="25.771228">
        <ele>151.3</ele>
      </trkpt>
      <trkpt lat="66.505915" lon="25.771155">
        <ele>150.3</ele>
      </trkpt>
      <trkpt lat="66.505977" lon="25.771264">
        <ele>149.4</ele>
      </trkpt>
      <trkpt lat="66.505999" lon="25.772135">
        <ele>147.7</ele>
      </trkpt>
      <trkpt lat="66.506008" lon="25.775658">
        <ele>143.3</ele>
      </trkpt>
      <trkpt lat="66.506169" lon="25.777935">
        <ele>137.3</ele>
      </trkpt>
      <trkpt lat="66.506143" lon="25.779246">
        <ele>135.7</ele>
      </trkpt>
      <trkpt lat="66.506179" lon="25.779283">
        <ele>134.7</ele>
      </trkpt>
      <trkpt lat="66.506198" lon="25.779254">
        <ele>134.5</ele>
      </trkpt>
      <trkpt lat="66.506327" lon="25.778734">
        <ele>131.5</ele>
      </trkpt>
      <trkpt lat="66.506466" lon="25.777732">
        <ele>128.0</ele>
      </trkpt>
      <trkpt lat="66.506471" lon="25.778891">
        <ele>126.8</ele>
      </trkpt>
      <trkpt lat="66.506514" lon="25.778915">
        <ele>125.2</ele>
      </trkpt>
      <trkpt lat="66.506706" lon="25.777244">
        <ele>118.5</ele>
      </trkpt>
      <trkpt lat="66.506822" lon="25.777912">
        <ele>114.6</ele>
      </trkpt>
      <trkpt lat="66.50682" lon="25.778355">
        <ele>113.9</ele>
      </trkpt>
      <trkpt lat="66.506791" lon="25.779074">
        <ele>113.0</ele>
      </trkpt>
      <trkpt lat="66.506689" lon="25.779645">
        <ele>115.3</ele>
      </trkpt>
      <trkpt lat="66.506683" lon="25.780257">
        <ele>113.6</ele>
      </trkpt>
      <trkpt lat="66.506714" lon="25.780417">
        <ele>111.5</ele>
      </trkpt>
      <trkpt lat="66.506988" lon="25.780449">
        <ele>105.4</ele>
      </trkpt>
      <trkpt lat="66.507076" lon="25.780507">
        <ele>103.8</ele>
      </trkpt>
      <trkpt lat="66.507106" lon="25.780601">
        <ele>103.2</ele>
      </trkpt>
    </trkseg>
  </trk>
</gpx>