{
  "type": "Feature",
  "properties": {
    "id": "ounasvaara-trail-center-loimu",
    "km": [
      0.0,
      0.014,
      0.063,
      0.082,
      0.144,
      0.271,
      0.286,
      0.321,
      0.366,
      0.38,
      0.415,
      0.421,
      0.435,
      0.456,
      0.498,
      0.51,
      0.556,
      0.575,
      0.606,
      0.611,
      0.687,
      0.716,
      0.737,
      0.761,
      0.808,
      0.827,
      0.918,
      0.959,
      1.019,
      1.025,
      1.034,
      1.072,
      1.229,
      1.332,
      1.391,
      1.397,
      1.424,
      1.471,
      1.523,
      1.528,
      1.605,
      1.638,
      1.657,
      1.689,
      1.717,
      1.744,
      1.752,
      1.783,
      1.793,
      1.798
    ]
  },
  "geometry": {
    "type": "LineString",
    "coordinates": [
      [
        25.787303,
        66.50211
      ],
      [
        25.787273,
        66.502234
      ],
      [
        25.78623,
        66.50239
      ],
      [
        25.785812,
        66.502406
      ],
      [
        25.784661,
        66.502722
      ],
      [
        25.781923,
        66.503038
      ],
      [
        25.781587,
        66.503047
      ],
      [
        25.780845,
        66.502958
      ],
      [
        25.779893,
        66.503101
      ],
      [
        25.779712,
        66.503202
      ],
      [
        25.779643,
        66.503518
      ],
      [
        25.779669,
        66.503567
      ],
      [
        25.779917,
        66.503652
      ],
      [
        25.780054,
        66.503828
      ],
      [
        25.779658,
        66.504176
      ],
      [
        25.779492,
        66.504253
      ],
      [
        25.778541,
        66.504415
      ],
      [
        25.778913,
        66.504495
      ],
      [
        25.779621,
        66.504532
      ],
      [
        25.779649,
        66.504568
      ],
      [
        25.778086,
        66.504846
      ],
      [
        25.777428,
        66.504873
      ],
      [
        25.777057,
        66.504993
      ],
      [
        25.776557,
        66.505064
      ],
      [
        25.775529,
        66.505174
      ],
      [
        25.775108,
        66.505166
      ],
      [
        25.77334,
        66.505577
      ],
      [
        25.772431,
        66.505627
      ],
      [
        25.771228,
        66.505867
      ],
      [
        25.771155,
        66.505915
      ],
      [
        25.771264,
        66.505977
      ],
      [
        25.772135,
        66.505999
      ],
      [
        25.775658,
        66.506008
      ],
      [
        25.777935,
        66.506169
      ],
      [
        25.779246,
        66.506143
      ],
      [
        25.779254,
        66.506198
      ],
      [
        25.778734,
        66.506327
      ],
      [
        25.777732,
        66.506466
      ],
      [
        25.778891,
        66.506471
      ],
      [
        25.778915,
        66.506514
      ],
      [
        25.777244,
        66.506706
      ],
      [
        25.777912,
        66.506822
      ],
      [
        25.778355,
        66.50682
      ],
      [
        25.779074,
        66.506791
      ],
      [
        25.779645,
        66.506689
      ],
      [
        25.780257,
        66.506683
      ],
      [
        25.780417,
        66.506714
      ],
      [
        25.780449,
        66.506988
      ],
      [
        25.780507,
        66.507076
      ],
      [
        25.780601,
        66.507106
      ]
    ]
  }
}
