{
  "type": "Feature",
  "properties": {
    "buffer_m": 4000
  },
  "geometry": {
    "type": "Polygon",
    "coordinates": [
      [
        [
          25.66216,
          66.50804
        ],
        [
          25.66613,
          66.5149
        ],
        [
          25.66989,
          66.51865
        ],
        [
          25.6788,
          66.52481
        ],
        [
          25.68436,
          66.5276
        ],
        [
          25.69517,
          66.53221
        ],
        [
          25.70504,
          66.53568
        ],
        [
          25.71243,
          66.53774
        ],
        [
          25.72702,
          66.5407
        ],
        [
          25.7365,
          66.54197
        ],
        [
          25.74414,
          66.54264
        ],
        [
          25.75345,
          66.5482
        ],
        [
          25.76156,
          66.55663
        ],
        [
          25.76545,
          66.55979
        ],
        [
          25.77547,
          66.56559
        ],
        [
          25.78151,
          66.56816
        ],
        [
          25.79533,
          66.57254
        ],
        [
          25.81104,
          66.57577
        ],
        [
          25.82803,
          66.57771
        ],
        [
          25.84564,
          66.57829
        ],
        [
          25.86321,
          66.57749
        ],
        [
          25.88004,
          66.57534
        ],
        [
          25.89549,
          66.57193
        ],
        [
          25.90251,
          66.56978
        ],
        [
          25.92103,
          66.56289
        ],
        [
          25.93189,
          66.55734
        ],
        [
          25.93957,
          66.55139
        ],
        [
          25.94449,
          66.54496
        ],
        [
          25.9458,
          66.54163
        ],
        [
          25.94632,
          66.53827
        ],
        [
          25.94498,
          66.53156
        ],
        [
          25.94294,
          66.52791
        ],
        [
          25.93662,
          66.52137
        ],
        [
          25.93229,
          66.51832
        ],
        [
          25.92444,
          66.51416
        ],
        [
          25.93596,
          66.50401
        ],
        [
          25.94202,
          66.49696
        ],
        [
          25.94369,
          66.49338
        ],
        [
          25.94445,
          66.48974
        ],
        [
          25.94422,
          66.48578
        ],
        [
          25.94251,
          66.4809
        ],
        [
          25.93724,
          66.47407
        ],
        [
          25.9291,
          66.46803
        ],
        [
          25.92399,
          66.46528
        ],
        [
          25.91192,
          66.46041
        ],
        [
          25.89775,
          66.45654
        ],
        [
          25.89004,
          66.45504
        ],
        [
          25.882,
          66.45383
        ],
        [
          25.86526,
          66.45236
        ],
        [
          25.85675,
          66.4521
        ],
        [
          25.84028,
          66.45251
        ],
        [
          25.83219,
          66.45317
        ],
        [
          25.81837,
          66.45511
        ],
        [
          25.80576,
          66.45595
        ],
        [
          25.79805,
          66.45686
        ],
        [
          25.78276,
          66.45958
        ],
        [
          25.76839,
          66.46042
        ],
        [
          25.75998,
          66.46137
        ],
        [
          25.74766,
          66.46349
        ],
        [
          25.73233,
          66.46466
        ],
        [
          25.72402,
          66.46579
        ],
        [
          25.70844,
          66.46901
        ],
        [
          25.69471,
          66.47337
        ],
        [
          25.68568,
          66.47709
        ],
        [
          25.68031,
          66.47959
        ],
        [
          25.6714,
          66.48512
        ],
        [
          25.66515,
          66.4912
        ],
        [
          25.66289,
          66.4948
        ],
        [
          25.66147,
          66.49844
        ],
        [
          25.661,
          66.50213
        ],
        [
          25.66216,
          66.50804
        ]
      ]
    ]
  }
}
