<?xml version="1.0" encoding="UTF-8"?>
<gpx xmlns="http://www.topografix.com/GPX/1/1" xmlns:xsi="http://www.w3.org/2001/XMLSchema-instance" xsi:schemaLocation="http://www.topografix.com/GPX/1/1 http://www.topografix.com/GPX/1/1/gpx.xsd" version="1.1" creator="hubandcircles-manager">
  <trk>
    <name>Ounasvaara Bike Park - Vinha</name>
    <trkseg>
      <trkpt lat="66.504676" lon="25.779213">
        <ele>176.0</ele>
      </trkpt>
      <trkpt lat="66.504739" lon="25.779095">
        <ele>175.0</ele>
      </trkpt>
      <trkpt lat="66.504818" lon="25.778532">
        <ele>173.1</ele>
      </trkpt>
      <trkpt lat="66.504862" lon="25.778507">
        <ele>171.7</ele>
      </trkpt>
      <trkpt lat="66.50493" lon="25.779089">
        <ele>169.9</ele>
      </trkpt>
      <trkpt lat="66.504911" lon="25.779553">
        <ele>169.4</ele>
      </trkpt>
      <trkpt lat="66.504945" lon="25.779578">
        <ele>168.7</ele>
      </trkpt>
      <trkpt lat="66.505059" lon="25.779143">
        <ele>166.8</ele>
      </trkpt>
      <trkpt lat="66.5051" lon="25.778685">
        <ele>165.9</ele>
      </trkpt>
      <trkpt lat="66.505331" lon="25.77748">
        <ele>160.6</ele>
      </trkpt>
      <trkpt lat="66.50552" lon="25.775908">
        <ele>156.6</ele>
      </trkpt>
      <trkpt lat="66.505606" lon="25.77636">
        <ele>154.0</ele>
      </trkpt>
      <trkpt lat="66.505588" lon="25.776991">
        <ele>154.3</ele>
      </trkpt>
      <trkpt lat="66.505824" lon="25.779446">
        <ele>145.4</ele>
      </trkpt>
      <trkpt lat="66.505858" lon="25.779454">
        <ele>144.0</ele>
      </trkpt>
      <trkpt lat="66.505929" lon="25.778881">
        <ele>143.5</ele>
      </trkpt>
      <trkpt lat="66.506053" lon="25.778436">
        <ele>140.3</ele>
      </trkpt>
      <trkpt lat="66.506095" lon="25.778694">
        <ele>138.5</ele>
      </trkpt>
      <trkpt lat="66.50611" lon="25.779876">
        <ele>135.9</ele>
      </trkpt>
      <trkpt lat="66.506162" lon="25.780051">
        <ele>133.6</ele>
      </trkpt>
      <trkpt lat="66.506406" lon="25.778788">
        <ele>128.3</ele>
      </trkpt>
      <trkpt lat="66.506429" lon="25.77884">
        <ele>127.9</ele>
      </trkpt>
      <trkpt lat="66.506467" lon="25.779364">
        <ele>126.0</ele>
      </trkpt>
      <trkpt lat="66.506445" lon="25.779907">
        <ele>126.1</ele>
      </trkpt>
      <trkpt lat="66.506366" lon="25.780188">
        <ele>125.4</ele>
      </trkpt>
      <trkpt lat="66.5064" lon="25.780318">
        <ele>123.9</ele>
      </trkpt>
      <trkpt lat="66.506602" lon="25.779687">
        <ele>118.9</ele>
      </trkpt>
      <trkpt lat="66.506676" lon="25.778501">
        <ele>118.5</ele>
      </trkpt>
      <trkpt lat="66.506751" lon="25.778141">
        <ele>116.4</ele>
      </trkpt>
      <trkpt lat="66.506813" lon="25.778373">
        <ele>113.9</ele>
      </trkpt>
    </trkseg>
  </trk>
</gpx>