{
  "type": "Feature",
  "properties": {
    "id": "swiftness",
    "km": [
      0.0,
      0.009,
      0.035,
      0.04,
      0.067,
      0.088,
      0.092,
      0.115,
      0.136,
      0.196,
      0.269,
      0.291,
      0.319,
      0.431,
      0.435,
      0.462,
      0.486,
      0.499,
      0.551,
      0.561,
      0.623,
      0.65,
      0.674,
      0.689,
      0.696,
      0.732,
      0.786,
      0.804,
      0.816
    ]
  },
  "geometry": {
    "type": "LineString",
    "coordinates": [
      [
        25.779213,
        66.504676
      ],
      [
        25.779095,
        66.504739
      ],
      [
        25.778532,
        66.504818
      ],
      [
        25.778507,
        66.504862
      ],
      [
        25.779089,
        66.50493
      ],
      [
        25.779553,
        66.504911
      ],
      [
        25.779578,
        66.504945
      ],
      [
        25.779143,
        66.505059
      ],
      [
        25.778685,
        66.5051
      ],
      [
        25.77748,
        66.505331
      ],
      [
        25.775908,
        66.50552
      ],
      [
        25.77636,
        66.505606
      ],
      [
        25.776991,
        66.505588
      ],
      [
        25.779446,
        66.505824
      ],
      [
        25.779454,
        66.505858
      ],
      [
        25.778881,
        66.505929
      ],
      [
        25.778436,
        66.506053
      ],
      [
        25.778694,
        66.506095
      ],
      [
        25.779876,
        66.50611
      ],
      [
        25.780051,
        66.506162
      ],
      [
        25.778788,
        66.506406
      ],
      [
        25.779364,
        66.506467
      ],
      [
        25.779907,
        66.506445
      ],
      [
        25.780188,
        66.506366
      ],
      [
        25.780318,
        66.5064
      ],
      [
        25.779687,
        66.506602
      ],
      [
        25.778501,
        66.506676
      ],
      [
        25.778141,
        66.506751
      ],
      [
        25.778373,
        66.506813
      ]
    ]
  }
}
