{
  "type": "Feature",
  "properties": {
    "id": "ounasvaara-trail-center-mini-trail-park",
    "km": [
      [
        0.0,
        0.01,
        0.069,
        0.078,
        0.085
      ],
      [
        0.085,
        0.099,
        0.115,
        0.138,
        0.145,
        0.154
      ],
      [
        0.154,
        0.169,
        0.181,
        0.195,
        0.221,
        0.236,
        0.246
      ],
      [
        0.246,
        0.255,
        0.293,
        0.31,
        0.316
      ],
      [
        0.316,
        0.322,
        0.334,
        0.36,
        0.371
      ],
      [
        0.371,
        0.383,
        0.434,
        0.447,
        0.458
      ]
    ]
  },
  "geometry": {
    "type": "MultiLineString",
    "coordinates": [
      [
        [
          25.791108,
          66.508069
        ],
        [
          25.791312,
          66.5081
        ],
        [
          25.792437,
          66.507809
        ],
        [
          25.792556,
          66.507749
        ],
        [
          25.792565,
          66.507682
        ]
      ],
      [
        [
          25.791097,
          66.508069
        ],
        [
          25.790791,
          66.508069
        ],
        [
          25.790511,
          66.508152
        ],
        [
          25.791022,
          66.508198
        ],
        [
          25.791139,
          66.508149
        ],
        [
          25.791101,
          66.508069
        ]
      ],
      [
        [
          25.792562,
          66.507683
        ],
        [
          25.792227,
          66.507694
        ],
        [
          25.792225,
          66.507801
        ],
        [
          25.791912,
          66.507782
        ],
        [
          25.791569,
          66.507962
        ],
        [
          25.791244,
          66.507995
        ],
        [
          25.791108,
          66.508069
        ]
      ],
      [
        [
          25.792435,
          66.50781
        ],
        [
          25.792325,
          66.50788
        ],
        [
          25.791618,
          66.508063
        ],
        [
          25.791268,
          66.508133
        ],
        [
          25.791149,
          66.508115
        ]
      ],
      [
        [
          25.792524,
          66.507654
        ],
        [
          25.792664,
          66.50767
        ],
        [
          25.792766,
          66.50777
        ],
        [
          25.792334,
          66.507928
        ],
        [
          25.792091,
          66.507928
        ]
      ],
      [
        [
          25.791101,
          66.508069
        ],
        [
          25.791154,
          66.507963
        ],
        [
          25.792127,
          66.507728
        ],
        [
          25.792319,
          66.507641
        ],
        [
          25.792562,
          66.507681
        ]
      ]
    ]
  }
}
