{
  "type": "Feature",
  "properties": {
    "id": "arctic-by-cycle-santa-s-western-gravel-loop",
    "km": [
      [
        0.0,
        0.003,
        0.444,
        0.768,
        0.971,
        1.981,
        2.102,
        2.328,
        2.436,
        2.735,
        2.874,
        2.975,
        3.261,
        4.663,
        5.017,
        5.306,
        5.374,
        5.493,
        5.656,
        5.983,
        6.404,
        6.476,
        6.538,
        6.928,
        7.193,
        7.453,
        7.52,
        7.77,
        7.882,
        8.766,
        8.845,
        8.932,
        9.406,
        9.5,
        9.839,
        9.912,
        10.134,
        11.111,
        11.209,
        11.315,
        12.688,
        12.784,
        12.863,
        13.49,
        15.443,
        15.54,
        15.972,
        16.075,
        16.191,
        16.885,
        17.156,
        18.037,
        18.127,
        18.469,
        18.699,
        19.03,
        19.098,
        19.159,
        19.22,
        19.376,
        19.574,
        19.863,
        19.971,
        20.145,
        20.172,
        20.328,
        20.643,
        20.822,
        20.923,
        20.962,
        21.009,
        21.056,
        21.095,
        21.196,
        21.375,
        21.69,
        21.846,
        21.873,
        22.046,
        22.155,
        22.443,
        22.641,
        22.798,
        22.859,
        22.92,
        22.988,
        23.319,
        23.549,
        23.891,
        24.481,
        24.6,
        24.972,
        25.161,
        25.376,
        25.474,
        25.57,
        25.832,
        25.89,
        25.961,
        26.194,
        26.277,
        26.332,
        26.72,
        26.918,
        27.003,
        27.186,
        27.294,
        27.49,
        27.597,
        27.753,
        28.099,
        28.322,
        28.576,
        28.671,
        28.755,
        28.996,
        29.201,
        29.516,
        29.59,
        29.778,
        30.122,
        30.16,
        30.74,
        30.87,
        31.008,
        31.057,
        31.613,
        31.656,
        31.789,
        31.851,
        32.002,
        32.069,
        32.332,
        32.599,
        32.723,
        32.848,
        32.987,
        33.307,
        33.942,
        34.065,
        34.286,
        34.302,
        34.407,
        34.789,
        34.929,
        35.08,
        35.16,
        35.306,
        35.428,
        35.618,
        35.701,
        35.826,
        35.943,
        36.031,
        36.232,
        36.285,
        36.577,
        36.899,
        37.081,
        37.12,
        37.189,
        37.307,
        37.41,
        37.514,
        37.678,
        37.826,
        37.972,
        38.041,
        38.202,
        38.342,
        38.725,
        38.829,
        38.845,
        39.066,
        39.189,
        39.824,
        39.907,
        40.111,
        40.222,
        40.341,
        40.622,
        40.803,
        41.253,
        41.933,
        42.066,
        42.148,
        42.295,
        42.666,
        42.803,
        44.178,
        44.984,
        46.967,
        47.108,
        47.381,
        47.599,
        48.381,
        48.466,
        48.52,
        48.593,
        48.697,
        50.532,
        50.637,
        50.725,
        50.811,
        51.399,
        51.491,
        51.559,
        51.887,
        51.966,
        52.028,
        52.079,
        52.146,
        52.481,
        53.281,
        53.64,
        53.729,
        53.846,
        53.945,
        54.032,
        54.605,
        54.737,
        54.828,
        55.48,
        56.206,
        56.533,
        57.233,
        57.948,
        58.57,
        58.669,
        58.783,
        59.111,
        59.245,
        59.279
      ],
      [
        59.279,
        59.321,
        59.434,
        59.506,
        59.545,
        59.577,
        59.612,
        59.633,
        59.691,
        60.145,
        60.281,
        60.416,
        60.486,
        60.577,
        60.601,
        60.758,
        60.841,
        60.904,
        60.957,
        61.047,
        61.143,
        61.308,
        61.341,
        61.402,
        61.495,
        61.527,
        61.552,
        61.658,
        62.575,
        62.754,
        63.418,
        63.551,
        63.82,
        63.918,
        64.509,
        64.588,
        64.673,
        64.732,
        64.87,
        64.946,
        65.098,
        65.428,
        65.494,
        65.772,
        66.185,
        66.306,
        66.771,
        66.901,
        67.108,
        67.371,
        67.592,
        67.697,
        67.818,
        67.986,
        68.061,
        68.264,
        68.417,
        68.459,
        68.774,
        69.177,
        69.243,
        69.481,
        69.845,
        69.905,
        70.084,
        70.131,
        70.634,
        70.68,
        70.774,
        71.313,
        71.352,
        71.395,
        71.588,
        71.684,
        71.821,
        72.123,
        72.31,
        72.353,
        72.75,
        72.842,
        72.913,
        73.319,
        74.109,
        74.156,
        74.539,
        74.595,
        75.382,
        75.646,
        76.056,
        76.353,
        76.509,
        76.63,
        76.781,
        76.861,
        77.791,
        78.139,
        78.217,
        79.218,
        79.462,
        80.161,
        80.372,
        80.967,
        81.737,
        81.843,
        82.032,
        83.821,
        83.929,
        84.529,
        84.769,
        85.217,
        86.044,
        86.336,
        86.514,
        87.261,
        87.649,
        88.173,
        88.233,
        88.483,
        89.216,
        90.277,
        90.586,
        90.645,
        91.433,
        92.18,
        92.655,
        92.785,
        93.249,
        93.295,
        94.306,
        95.588,
        96.002,
        96.131,
        97.57,
        97.756,
        98.032,
        98.638,
        99.044,
        99.242,
        99.328,
        99.782,
        99.86,
        99.959,
        100.024,
        100.162,
        100.39,
        100.519,
        101.083,
        101.392,
        102.81,
        102.939,
        103.04,
        103.151,
        103.273,
        103.989,
        104.092,
        104.29,
        104.387,
        105.398,
        105.464,
        105.574,
        105.648,
        105.809,
        105.86,
        105.93,
        106.425,
        106.557,
        106.838,
        107.034,
        107.541,
        107.628,
        107.883,
        107.936,
        108.07,
        108.534,
        108.608,
        108.725,
        108.837,
        109.09,
        109.472,
        109.606,
        110.151,
        110.614,
        111.319,
        111.496,
        111.735,
        111.872,
        112.138,
        112.265,
        112.442,
        112.577,
        112.713,
        112.904,
        113.003,
        113.044,
        113.158,
        113.371,
        113.458,
        113.615,
        113.792,
        113.834,
        114.152,
        114.379,
        114.635,
        114.787,
        114.88,
        114.992,
        115.024
      ],
      [
        115.024,
        115.48,
        115.625,
        116.279,
        116.302,
        116.396,
        116.407,
        116.704,
        116.772,
        117.376,
        117.667,
        117.841,
        118.384,
        118.437,
        118.647,
        118.683,
        118.903,
        119.147,
        119.763,
        120.123,
        120.24,
        120.351,
        120.446,
        120.65,
        120.757,
        120.853,
        120.919,
        121.564,
        121.788,
        122.274,
        122.294,
        122.306,
        122.355
      ],
      [
        122.355,
        122.429,
        122.466,
        122.577,
        122.668,
        122.885,
        123.009,
        123.668,
        124.128,
        124.241,
        124.356,
        125.582,
        126.076,
        126.26,
        127.414,
        127.638,
        127.732,
        127.977,
        128.188,
        128.349,
        128.994,
        129.366,
        129.386,
        129.445,
        129.622,
        129.987,
        130.12,
        130.196,
        130.242,
        130.34,
        130.708,
        130.721,
        130.734,
        131.103,
        131.2,
        131.246,
        131.344,
        131.567,
        131.728,
        131.842,
        131.986,
        132.069,
        132.197,
        132.371,
        132.457,
        132.573,
        132.878,
        133.073,
        133.177,
        133.259,
        133.402,
        133.565,
        133.587,
        133.793,
        133.878,
        134.121,
        134.266,
        134.351,
        134.433,
        134.705,
        134.894,
        135.465,
        135.884,
        136.137,
        136.313,
        136.343,
        136.37,
        136.426,
        136.482,
        136.887,
        136.94,
        137.019,
        137.23,
        137.611,
        137.945,
        138.168,
        138.413,
        138.564,
        138.706,
        138.803,
        138.848,
        139.21,
        139.296,
        140.028,
        140.083,
        140.237,
        140.274,
        140.371,
        140.552,
        140.929
      ]
    ]
  },
  "geometry": {
    "type": "MultiLineString",
    "coordinates": [
      [
        [
          25.457808,
          66.879043
        ],
        [
          25.45786,
          66.87902
        ],
        [
          25.46729,
          66.88038
        ],
        [
          25.47462,
          66.880759
        ],
        [
          25.47899,
          66.881378
        ],
        [
          25.49556,
          66.88767
        ],
        [
          25.49812,
          66.888059
        ],
        [
          25.50328,
          66.8882
        ],
        [
          25.50567,
          66.88842
        ],
        [
          25.51132,
          66.88993
        ],
        [
          25.51437,
          66.89026
        ],
        [
          25.51665,
          66.8901
        ],
        [
          25.52254,
          66.888999
        ],
        [
          25.55311,
          66.885279
        ],
        [
          25.55266,
          66.88211
        ],
        [
          25.5507,
          66.879639
        ],
        [
          25.55075,
          66.87903
        ],
        [
          25.55112,
          66.87797
        ],
        [
          25.55282,
          66.87667
        ],
        [
          25.55706,
          66.87426
        ],
        [
          25.56154,
          66.87092
        ],
        [
          25.56177,
          66.870279
        ],
        [
          25.56168,
          66.86973
        ],
        [
          25.55875,
          66.866429
        ],
        [
          25.55835,
          66.864059
        ],
        [
          25.5571,
          66.861779
        ],
        [
          25.55735,
          66.861188
        ],
        [
          25.56013,
          66.85923
        ],
        [
          25.5618,
          66.85847
        ],
        [
          25.5797,
          66.85483
        ],
        [
          25.58114,
          66.8544
        ],
        [
          25.58206,
          66.85371
        ],
        [
          25.58464,
          66.84958
        ],
        [
          25.58579,
          66.84887
        ],
        [
          25.59117,
          66.846689
        ],
        [
          25.59263,
          66.84638
        ],
        [
          25.59757,
          66.84594
        ],
        [
          25.61522,
          66.84061
        ],
        [
          25.6172,
          66.840199
        ],
        [
          25.6196,
          66.84008
        ],
        [
          25.65084,
          66.84061
        ],
        [
          25.653,
          66.8405
        ],
        [
          25.65446,
          66.84009
        ],
        [
          25.66464,
          66.83614
        ],
        [
          25.70155,
          66.82638
        ],
        [
          25.70314,
          66.825779
        ],
        [
          25.70947,
          66.82281
        ],
        [
          25.71123,
          66.822199
        ],
        [
          25.7137,
          66.821839
        ],
        [
          25.72935,
          66.821
        ],
        [
          25.73538,
          66.82048
        ],
        [
          25.7515,
          66.81578
        ],
        [
          25.75281,
          66.81516
        ],
        [
          25.75936,
          66.81681
        ],
        [
          25.76305,
          66.81827
        ],
        [
          25.76672,
          66.82087
        ],
        [
          25.76695,
          66.82147
        ],
        [
          25.76674,
          66.82201
        ],
        [
          25.76615,
          66.822509
        ],
        [
          25.76274,
          66.8229
        ],
        [
          25.75905,
          66.82392
        ],
        [
          25.75308,
          66.82499
        ],
        [
          25.75138,
          66.8257
        ],
        [
          25.75015,
          66.82718
        ],
        [
          25.74976,
          66.82737
        ],
        [
          25.74666,
          66.82804
        ],
        [
          25.74081,
          66.829679
        ],
        [
          25.73728,
          66.830479
        ],
        [
          25.73649,
          66.829629
        ],
        [
          25.73599,
          66.82934
        ],
        [
          25.73492,
          66.829359
        ],
        [
          25.73599,
          66.82934
        ],
        [
          25.73649,
          66.829629
        ],
        [
          25.73728,
          66.830479
        ],
        [
          25.74081,
          66.829679
        ],
        [
          25.74666,
          66.82804
        ],
        [
          25.74976,
          66.82737
        ],
        [
          25.75015,
          66.82718
        ],
        [
          25.75138,
          66.8257
        ],
        [
          25.75308,
          66.82499
        ],
        [
          25.75905,
          66.82392
        ],
        [
          25.76274,
          66.8229
        ],
        [
          25.76615,
          66.822509
        ],
        [
          25.76674,
          66.82201
        ],
        [
          25.76695,
          66.82147
        ],
        [
          25.76672,
          66.82087
        ],
        [
          25.76305,
          66.81827
        ],
        [
          25.75936,
          66.81681
        ],
        [
          25.75281,
          66.81516
        ],
        [
          25.75933,
          66.81053
        ],
        [
          25.76083,
          66.80964
        ],
        [
          25.76621,
          66.807069
        ],
        [
          25.76829,
          66.805589
        ],
        [
          25.77018,
          66.80381
        ],
        [
          25.77063,
          66.802949
        ],
        [
          25.77065,
          66.80209
        ],
        [
          25.76982,
          66.79976
        ],
        [
          25.77004,
          66.79925
        ],
        [
          25.77077,
          66.79868
        ],
        [
          25.77467,
          66.79727
        ],
        [
          25.77562,
          66.796628
        ],
        [
          25.77596,
          66.79615
        ],
        [
          25.77377,
          66.792778
        ],
        [
          25.77128,
          66.7913
        ],
        [
          25.7712,
          66.790538
        ],
        [
          25.76996,
          66.78897
        ],
        [
          25.76958,
          66.78802
        ],
        [
          25.76943,
          66.78626
        ],
        [
          25.76963,
          66.7853
        ],
        [
          25.77041,
          66.78394
        ],
        [
          25.7741,
          66.7812
        ],
        [
          25.77848,
          66.780198
        ],
        [
          25.78378,
          66.77929
        ],
        [
          25.78523,
          66.77866
        ],
        [
          25.78623,
          66.77802
        ],
        [
          25.78594,
          66.775859
        ],
        [
          25.78702,
          66.774069
        ],
        [
          25.78781,
          66.77126
        ],
        [
          25.78734,
          66.77063
        ],
        [
          25.78522,
          66.76916
        ],
        [
          25.78289,
          66.76622
        ],
        [
          25.7828,
          66.765879
        ],
        [
          25.78457,
          66.760729
        ],
        [
          25.78524,
          66.75959
        ],
        [
          25.7848,
          66.75837
        ],
        [
          25.78481,
          66.75793
        ],
        [
          25.79049,
          66.753479
        ],
        [
          25.79072,
          66.7531
        ],
        [
          25.79071,
          66.751909
        ],
        [
          25.79045,
          66.75136
        ],
        [
          25.78794,
          66.75044
        ],
        [
          25.78718,
          66.74992
        ],
        [
          25.78707,
          66.747558
        ],
        [
          25.78507,
          66.7453
        ],
        [
          25.78493,
          66.74419
        ],
        [
          25.78582,
          66.743128
        ],
        [
          25.78615,
          66.74189
        ],
        [
          25.78552,
          66.73903
        ],
        [
          25.79991,
          66.73878
        ],
        [
          25.80244,
          66.73925
        ],
        [
          25.80588,
          66.74069
        ],
        [
          25.80625,
          66.74069
        ],
        [
          25.80834,
          66.74025
        ],
        [
          25.81666,
          66.73927
        ],
        [
          25.81951,
          66.73873
        ],
        [
          25.82293,
          66.738609
        ],
        [
          25.82433,
          66.73907
        ],
        [
          25.82529,
          66.74032
        ],
        [
          25.82805,
          66.740359
        ],
        [
          25.83227,
          66.74073
        ],
        [
          25.83266,
          66.74145
        ],
        [
          25.8325,
          66.74257
        ],
        [
          25.83121,
          66.743489
        ],
        [
          25.83094,
          66.74427
        ],
        [
          25.83281,
          66.74592
        ],
        [
          25.83349,
          66.746309
        ],
        [
          25.8307,
          66.748684
        ],
        [
          25.83281,
          66.74592
        ],
        [
          25.83104,
          66.74445
        ],
        [
          25.83092,
          66.7441
        ],
        [
          25.83121,
          66.743489
        ],
        [
          25.8325,
          66.74257
        ],
        [
          25.83269,
          66.74165
        ],
        [
          25.83227,
          66.74073
        ],
        [
          25.82864,
          66.740399
        ],
        [
          25.82529,
          66.74032
        ],
        [
          25.82433,
          66.73907
        ],
        [
          25.82316,
          66.73865
        ],
        [
          25.81951,
          66.73873
        ],
        [
          25.81666,
          66.73927
        ],
        [
          25.80834,
          66.74025
        ],
        [
          25.80625,
          66.74069
        ],
        [
          25.80588,
          66.74069
        ],
        [
          25.80244,
          66.73925
        ],
        [
          25.79991,
          66.73878
        ],
        [
          25.78552,
          66.73903
        ],
        [
          25.78504,
          66.73831
        ],
        [
          25.78291,
          66.736689
        ],
        [
          25.78228,
          66.73573
        ],
        [
          25.78201,
          66.734669
        ],
        [
          25.78306,
          66.73218
        ],
        [
          25.78338,
          66.73056
        ],
        [
          25.78255,
          66.72654
        ],
        [
          25.78353,
          66.72045
        ],
        [
          25.78328,
          66.719269
        ],
        [
          25.78295,
          66.71854
        ],
        [
          25.78196,
          66.71728
        ],
        [
          25.77835,
          66.71428
        ],
        [
          25.77678,
          66.71322
        ],
        [
          25.75807,
          66.70336
        ],
        [
          25.75029,
          66.69682
        ],
        [
          25.72678,
          66.68168
        ],
        [
          25.72467,
          66.68073
        ],
        [
          25.72013,
          66.679069
        ],
        [
          25.71598,
          66.67801
        ],
        [
          25.70053,
          66.674589
        ],
        [
          25.69906,
          66.674099
        ],
        [
          25.69847,
          66.67367
        ],
        [
          25.69818,
          66.67303
        ],
        [
          25.69853,
          66.67211
        ],
        [
          25.70684,
          66.65599
        ],
        [
          25.70707,
          66.65505
        ],
        [
          25.70671,
          66.65427
        ],
        [
          25.70584,
          66.65358
        ],
        [
          25.69671,
          66.64975
        ],
        [
          25.69558,
          66.64906
        ],
        [
          25.69509,
          66.64848
        ],
        [
          25.69372,
          66.64559
        ],
        [
          25.69344,
          66.64489
        ],
        [
          25.69349,
          66.64434
        ],
        [
          25.69373,
          66.64389
        ],
        [
          25.69434,
          66.643339
        ],
        [
          25.69888,
          66.64093
        ],
        [
          25.7127,
          66.636309
        ],
        [
          25.71986,
          66.63481
        ],
        [
          25.72136,
          66.63427
        ],
        [
          25.7229,
          66.63342
        ],
        [
          25.72384,
          66.63262
        ],
        [
          25.72435,
          66.63186
        ],
        [
          25.7245,
          66.62672
        ],
        [
          25.72498,
          66.625558
        ],
        [
          25.72572,
          66.62479
        ],
        [
          25.73289,
          66.61969
        ],
        [
          25.74374,
          66.61481
        ],
        [
          25.74818,
          66.61247
        ],
        [
          25.76158,
          66.60915
        ],
        [
          25.77188,
          66.604209
        ],
        [
          25.78306,
          66.60084
        ],
        [
          25.78445,
          66.60015
        ],
        [
          25.78569,
          66.59925
        ],
        [
          25.78748,
          66.5964
        ],
        [
          25.78871,
          66.595299
        ],
        [
          25.789359,
          66.595143
        ]
      ],
      [
        [
          25.597209,
          66.461972
        ],
        [
          25.59636,
          66.46214
        ],
        [
          25.59427,
          66.461569
        ],
        [
          25.59267,
          66.46147
        ],
        [
          25.59331,
          66.46171
        ],
        [
          25.59325,
          66.462
        ],
        [
          25.593618,
          66.462277
        ],
        [
          25.593574,
          66.462458
        ],
        [
          25.594424,
          66.462855
        ],
        [
          25.587204,
          66.465732
        ],
        [
          25.58416,
          66.465725
        ],
        [
          25.581354,
          66.466181
        ],
        [
          25.58011,
          66.466559
        ],
        [
          25.578082,
          66.466685
        ],
        [
          25.577734,
          66.466849
        ],
        [
          25.574263,
          66.467062
        ],
        [
          25.572657,
          66.466684
        ],
        [
          25.572176,
          66.46615
        ],
        [
          25.572054,
          66.465683
        ],
        [
          25.572789,
          66.464931
        ],
        [
          25.571049,
          66.464416
        ],
        [
          25.568211,
          66.465367
        ],
        [
          25.567495,
          66.465295
        ],
        [
          25.566267,
          66.465526
        ],
        [
          25.564185,
          66.46543
        ],
        [
          25.563576,
          66.46559
        ],
        [
          25.563427,
          66.465799
        ],
        [
          25.561436,
          66.465267
        ],
        [
          25.54538,
          66.4704
        ],
        [
          25.54161,
          66.47096
        ],
        [
          25.52679,
          66.47156
        ],
        [
          25.5242,
          66.47215
        ],
        [
          25.52036,
          66.47401
        ],
        [
          25.51838,
          66.47439
        ],
        [
          25.50539,
          66.47546
        ],
        [
          25.50368,
          66.475269
        ],
        [
          25.50231,
          66.474729
        ],
        [
          25.50115,
          66.47449
        ],
        [
          25.49804,
          66.47441
        ],
        [
          25.49647,
          66.47416
        ],
        [
          25.49384,
          66.47329
        ],
        [
          25.49017,
          66.47072
        ],
        [
          25.48908,
          66.47032
        ],
        [
          25.48343,
          66.469269
        ],
        [
          25.47441,
          66.46839
        ],
        [
          25.47191,
          66.467969
        ],
        [
          25.4659,
          66.46456
        ],
        [
          25.46443,
          66.46356
        ],
        [
          25.46222,
          66.46192
        ],
        [
          25.46008,
          66.459728
        ],
        [
          25.45669,
          66.45828
        ],
        [
          25.45477,
          66.45773
        ],
        [
          25.45287,
          66.456959
        ],
        [
          25.44948,
          66.4563
        ],
        [
          25.44831,
          66.45582
        ],
        [
          25.44577,
          66.45431
        ],
        [
          25.44304,
          66.453469
        ],
        [
          25.44278,
          66.453109
        ],
        [
          25.44182,
          66.45031
        ],
        [
          25.44034,
          66.446749
        ],
        [
          25.43953,
          66.44625
        ],
        [
          25.43481,
          66.44526
        ],
        [
          25.4271,
          66.44418
        ],
        [
          25.42607,
          66.443839
        ],
        [
          25.42538,
          66.44226
        ],
        [
          25.42481,
          66.4419
        ],
        [
          25.41363,
          66.441328
        ],
        [
          25.41274,
          66.44112
        ],
        [
          25.41225,
          66.440298
        ],
        [
          25.41042,
          66.43552
        ],
        [
          25.41014,
          66.43519
        ],
        [
          25.40952,
          66.4349
        ],
        [
          25.40552,
          66.43423
        ],
        [
          25.40339,
          66.43415
        ],
        [
          25.40053,
          66.43371
        ],
        [
          25.39397,
          66.43304
        ],
        [
          25.38977,
          66.43309
        ],
        [
          25.38909,
          66.43282
        ],
        [
          25.38511,
          66.436
        ],
        [
          25.38402,
          66.4367
        ],
        [
          25.38289,
          66.43715
        ],
        [
          25.37562,
          66.43934
        ],
        [
          25.35953,
          66.44229
        ],
        [
          25.35887,
          66.44262
        ],
        [
          25.35508,
          66.4457
        ],
        [
          25.35431,
          66.4461
        ],
        [
          25.33818,
          66.44896
        ],
        [
          25.33322,
          66.45025
        ],
        [
          25.32674,
          66.45286
        ],
        [
          25.32347,
          66.45518
        ],
        [
          25.32061,
          66.45599
        ],
        [
          25.31874,
          66.45677
        ],
        [
          25.31572,
          66.45738
        ],
        [
          25.31437,
          66.45786
        ],
        [
          25.30153,
          66.464428
        ],
        [
          25.29512,
          66.46622
        ],
        [
          25.29347,
          66.46643
        ],
        [
          25.27103,
          66.46678
        ],
        [
          25.26588,
          66.46753
        ],
        [
          25.25022,
          66.46711
        ],
        [
          25.24551,
          66.46727
        ],
        [
          25.23349,
          66.469578
        ],
        [
          25.21946,
          66.473608
        ],
        [
          25.2173,
          66.474019
        ],
        [
          25.21306,
          66.47413
        ],
        [
          25.17358,
          66.47701
        ],
        [
          25.17155,
          66.477548
        ],
        [
          25.16235,
          66.48148
        ],
        [
          25.15789,
          66.48268
        ],
        [
          25.1511,
          66.48564
        ],
        [
          25.1351,
          66.48941
        ],
        [
          25.12916,
          66.49051
        ],
        [
          25.12529,
          66.490939
        ],
        [
          25.10855,
          66.49126
        ],
        [
          25.1005,
          66.49259
        ],
        [
          25.08912,
          66.493798
        ],
        [
          25.08824,
          66.494209
        ],
        [
          25.08666,
          66.496359
        ],
        [
          25.07418,
          66.50064
        ],
        [
          25.0618,
          66.50878
        ],
        [
          25.05598,
          66.51029
        ],
        [
          25.05504,
          66.51066
        ],
        [
          25.04465,
          66.51638
        ],
        [
          25.03007,
          66.51971
        ],
        [
          25.01981,
          66.52087
        ],
        [
          25.01712,
          66.521339
        ],
        [
          25.00883,
          66.52386
        ],
        [
          25.00784,
          66.524
        ],
        [
          24.98524,
          66.52305
        ],
        [
          24.95775,
          66.52652
        ],
        [
          24.94849,
          66.52619
        ],
        [
          24.94558,
          66.52625
        ],
        [
          24.91726,
          66.532489
        ],
        [
          24.91316,
          66.53281
        ],
        [
          24.90696,
          66.53269
        ],
        [
          24.89348,
          66.53351
        ],
        [
          24.88929,
          66.53027
        ],
        [
          24.88751,
          66.52865
        ],
        [
          24.88732,
          66.527879
        ],
        [
          24.88746,
          66.52381
        ],
        [
          24.88706,
          66.523129
        ],
        [
          24.88591,
          66.522369
        ],
        [
          24.8848,
          66.52198
        ],
        [
          24.88214,
          66.52135
        ],
        [
          24.87735,
          66.52063
        ],
        [
          24.8752,
          66.51985
        ],
        [
          24.86998,
          66.51524
        ],
        [
          24.8655,
          66.51312
        ],
        [
          24.85318,
          66.5014
        ],
        [
          24.85179,
          66.50038
        ],
        [
          24.85032,
          66.49969
        ],
        [
          24.84826,
          66.499129
        ],
        [
          24.84571,
          66.49874
        ],
        [
          24.83022,
          66.497
        ],
        [
          24.82792,
          66.49708
        ],
        [
          24.82374,
          66.497699
        ],
        [
          24.82157,
          66.49769
        ],
        [
          24.79964,
          66.49532
        ],
        [
          24.79849,
          66.49495
        ],
        [
          24.79712,
          66.49413
        ],
        [
          24.79633,
          66.49355
        ],
        [
          24.79505,
          66.4922
        ],
        [
          24.79434,
          66.49184
        ],
        [
          24.79295,
          66.49154
        ],
        [
          24.78236,
          66.4902
        ],
        [
          24.77963,
          66.49066
        ],
        [
          24.77427,
          66.492
        ],
        [
          24.7702,
          66.49267
        ],
        [
          24.76174,
          66.49571
        ],
        [
          24.76044,
          66.49629
        ],
        [
          24.75948,
          66.498549
        ],
        [
          24.75914,
          66.498999
        ],
        [
          24.7572,
          66.49992
        ],
        [
          24.74752,
          66.50147
        ],
        [
          24.74631,
          66.50192
        ],
        [
          24.74491,
          66.50281
        ],
        [
          24.74446,
          66.5038
        ],
        [
          24.74247,
          66.50592
        ],
        [
          24.74192,
          66.509339
        ],
        [
          24.74095,
          66.51048
        ],
        [
          24.7358,
          66.51491
        ],
        [
          24.72981,
          66.51831
        ],
        [
          24.71402,
          66.51887
        ],
        [
          24.71065,
          66.518029
        ],
        [
          24.70559,
          66.51732
        ],
        [
          24.70286,
          66.517889
        ],
        [
          24.69708,
          66.5185
        ],
        [
          24.69456,
          66.51904
        ],
        [
          24.69171,
          66.52015
        ],
        [
          24.69017,
          66.52119
        ],
        [
          24.68893,
          66.52231
        ],
        [
          24.68597,
          66.52355
        ],
        [
          24.68524,
          66.52439
        ],
        [
          24.68476,
          66.524699
        ],
        [
          24.68235,
          66.52504
        ],
        [
          24.67754,
          66.525
        ],
        [
          24.67585,
          66.52538
        ],
        [
          24.67387,
          66.52655
        ],
        [
          24.67274,
          66.52807
        ],
        [
          24.67209,
          66.52834
        ],
        [
          24.66563,
          66.529579
        ],
        [
          24.66089,
          66.52883
        ],
        [
          24.65514,
          66.52889
        ],
        [
          24.6522,
          66.52959
        ],
        [
          24.65012,
          66.529669
        ],
        [
          24.64833,
          66.530379
        ],
        [
          24.648812,
          66.530588
        ]
      ],
      [
        [
          25.71464,
          66.49642
        ],
        [
          25.70968,
          66.49284
        ],
        [
          25.70725,
          66.49198
        ],
        [
          25.6995,
          66.486999
        ],
        [
          25.69899,
          66.48697
        ],
        [
          25.69772,
          66.48629
        ],
        [
          25.6975,
          66.48634
        ],
        [
          25.69382,
          66.484128
        ],
        [
          25.69261,
          66.48375
        ],
        [
          25.67915,
          66.48308
        ],
        [
          25.67262,
          66.48305
        ],
        [
          25.66876,
          66.4833
        ],
        [
          25.65711,
          66.484719
        ],
        [
          25.65593,
          66.48469
        ],
        [
          25.65129,
          66.48504
        ],
        [
          25.65059,
          66.485209
        ],
        [
          25.64581,
          66.484719
        ],
        [
          25.64102,
          66.48366
        ],
        [
          25.63119,
          66.47977
        ],
        [
          25.62516,
          66.47763
        ],
        [
          25.62388,
          66.47671
        ],
        [
          25.62231,
          66.475939
        ],
        [
          25.62124,
          66.4752
        ],
        [
          25.61902,
          66.4736
        ],
        [
          25.61859,
          66.47266
        ],
        [
          25.61751,
          66.471909
        ],
        [
          25.61631,
          66.47156
        ],
        [
          25.60939,
          66.466488
        ],
        [
          25.60622,
          66.46492
        ],
        [
          25.59808,
          66.46203
        ],
        [
          25.59832,
          66.461878
        ],
        [
          25.59818,
          66.46178
        ],
        [
          25.597209,
          66.461972
        ]
      ],
      [
        [
          25.789359,
          66.595143
        ],
        [
          25.79079,
          66.5948
        ],
        [
          25.79163,
          66.59475
        ],
        [
          25.79147,
          66.59376
        ],
        [
          25.79195,
          66.592969
        ],
        [
          25.79445,
          66.59129
        ],
        [
          25.79547,
          66.59026
        ],
        [
          25.79775,
          66.584419
        ],
        [
          25.79912,
          66.58033
        ],
        [
          25.79938,
          66.579319
        ],
        [
          25.79938,
          66.578289
        ],
        [
          25.79679,
          66.56735
        ],
        [
          25.79555,
          66.56294
        ],
        [
          25.79457,
          66.56134
        ],
        [
          25.78744,
          66.55139
        ],
        [
          25.79225,
          66.55077
        ],
        [
          25.79436,
          66.55082
        ],
        [
          25.79978,
          66.55043
        ],
        [
          25.80401,
          66.54958
        ],
        [
          25.80755,
          66.54924
        ],
        [
          25.82204,
          66.54893
        ],
        [
          25.83034,
          66.5494
        ],
        [
          25.83044,
          66.549229
        ],
        [
          25.8301,
          66.54872
        ],
        [
          25.83073,
          66.54715
        ],
        [
          25.83117,
          66.54388
        ],
        [
          25.831543,
          66.542703
        ],
        [
          25.83327,
          66.54267
        ],
        [
          25.83419,
          66.54286
        ],
        [
          25.83638,
          66.5429
        ],
        [
          25.84441,
          66.543718
        ],
        [
          25.8444,
          66.5436
        ],
        [
          25.84441,
          66.543718
        ],
        [
          25.83638,
          66.5429
        ],
        [
          25.83419,
          66.54286
        ],
        [
          25.83327,
          66.54267
        ],
        [
          25.83108,
          66.54268
        ],
        [
          25.82632,
          66.54204
        ],
        [
          25.82273,
          66.54222
        ],
        [
          25.82023,
          66.54196
        ],
        [
          25.817,
          66.54197
        ],
        [
          25.81739,
          66.54124
        ],
        [
          25.81761,
          66.540099
        ],
        [
          25.81846,
          66.53857
        ],
        [
          25.81911,
          66.53785
        ],
        [
          25.82034,
          66.53693
        ],
        [
          25.82444,
          66.53474
        ],
        [
          25.82585,
          66.53308
        ],
        [
          25.82595,
          66.53215
        ],
        [
          25.8264,
          66.53144
        ],
        [
          25.82562,
          66.53019
        ],
        [
          25.82392,
          66.528898
        ],
        [
          25.82399,
          66.5287
        ],
        [
          25.82317,
          66.52688
        ],
        [
          25.82301,
          66.526129
        ],
        [
          25.82298,
          66.52395
        ],
        [
          25.82359,
          66.52267
        ],
        [
          25.82338,
          66.52191
        ],
        [
          25.82268,
          66.52123
        ],
        [
          25.81889,
          66.519318
        ],
        [
          25.81467,
          66.51913
        ],
        [
          25.80254,
          66.517438
        ],
        [
          25.79333,
          66.516679
        ],
        [
          25.78833,
          66.5156
        ],
        [
          25.78436,
          66.51553
        ],
        [
          25.78437,
          66.51526
        ],
        [
          25.78494,
          66.515198
        ],
        [
          25.7855,
          66.51475
        ],
        [
          25.78537,
          66.51425
        ],
        [
          25.78064,
          66.51114
        ],
        [
          25.77987,
          66.51078
        ],
        [
          25.77847,
          66.51035
        ],
        [
          25.77411,
          66.509609
        ],
        [
          25.76571,
          66.508939
        ],
        [
          25.75862,
          66.50794
        ],
        [
          25.75431,
          66.50693
        ],
        [
          25.74985,
          66.50564
        ],
        [
          25.74839,
          66.504419
        ],
        [
          25.74766,
          66.50318
        ],
        [
          25.74669,
          66.502399
        ],
        [
          25.74568,
          66.50239
        ],
        [
          25.73828,
          66.50375
        ],
        [
          25.73905,
          66.50305
        ],
        [
          25.73387,
          66.49682
        ],
        [
          25.73385,
          66.49632
        ],
        [
          25.73054,
          66.49593
        ],
        [
          25.73071,
          66.49561
        ],
        [
          25.72853,
          66.49557
        ],
        [
          25.72451,
          66.495819
        ],
        [
          25.71658,
          66.49702
        ]
      ]
    ]
  }
}
