{
  "type": "Feature",
  "properties": {
    "id": "rollo-mtb-maastopyorailyreitti",
    "km": [
      [
        0.0,
        0.032
      ],
      [
        0.032,
        0.07,
        0.105,
        0.133,
        0.163,
        0.176,
        0.205,
        0.238,
        0.283,
        0.315,
        0.349,
        0.378,
        0.436,
        0.494,
        0.507,
        0.541,
        0.583,
        0.596,
        0.641,
        0.652,
        0.688,
        0.75,
        0.787,
        0.802,
        0.841,
        0.864,
        0.875,
        0.926,
        0.94,
        0.951,
        1.001,
        1.014,
        1.048,
        1.059,
        1.087,
        1.12,
        1.133,
        1.158,
        1.191,
        1.204,
        1.23,
        1.252,
        1.276,
        1.323,
        1.336,
        1.386,
        1.436,
        1.446,
        1.457,
        1.47,
        1.492,
        1.537,
        1.611,
        1.623,
        1.638,
        1.697,
        1.713,
        1.729,
        1.757,
        1.828,
        1.841,
        1.854,
        1.878,
        1.888,
        1.899,
        1.922,
        1.96,
        1.986,
        2.023,
        2.041,
        2.084,
        2.097,
        2.112,
        2.126,
        2.154,
        2.187,
        2.235,
        2.247,
        2.258,
        2.287,
        2.312,
        2.326,
        2.357,
        2.371,
        2.387,
        2.433,
        2.473,
        2.511,
        2.572,
        2.582,
        2.64,
        2.653,
        2.704,
        2.772,
        2.809,
        2.863,
        2.907,
        2.989,
        3.011,
        3.073,
        3.118,
        3.149,
        3.165,
        3.192,
        3.204,
        3.218,
        3.242,
        3.277,
        3.314,
        3.324,
        3.358,
        3.383,
        3.416,
        3.44,
        3.465,
        3.487,
        3.548,
        3.601,
        3.624,
        3.636,
        3.659,
        3.672,
        3.695,
        3.73,
        3.74,
        3.754,
        3.806,
        3.944,
        3.968,
        3.992,
        4.017,
        4.067,
        4.092,
        4.125,
        4.136,
        4.173,
        4.186,
        4.219,
        4.237,
        4.282,
        4.355,
        4.375,
        4.418,
        4.431,
        4.445,
        4.49,
        4.501,
        4.514,
        4.539,
        4.55,
        4.562,
        4.592,
        4.625,
        4.645,
        4.67,
        4.68,
        4.692,
        4.707,
        4.741,
        4.775,
        4.788,
        4.861,
        4.874,
        4.892,
        4.951,
        4.991,
        5.017,
        5.039,
        5.058,
        5.113,
        5.199,
        5.297,
        5.358,
        5.373,
        5.469,
        5.493,
        5.542,
        5.552,
        5.565,
        5.716,
        5.756,
        5.823,
        5.895,
        5.922,
        5.935,
        5.948,
        5.971,
        6.022,
        6.041,
        6.127,
        6.138,
        6.163,
        6.184,
        6.208,
        6.277,
        6.353,
        6.364,
        6.419,
        6.462,
        6.545,
        6.581,
        6.592,
        6.604,
        6.617,
        6.653,
        6.666,
        6.69,
        6.726,
        6.744,
        6.759,
        6.78,
        6.793,
        6.828,
        6.851,
        6.861,
        6.872,
        6.959,
        7.006,
        7.037,
        7.062,
        7.093,
        7.107,
        7.15,
        7.239,
        7.251,
        7.265,
        7.337,
        7.361,
        7.394,
        7.428,
        7.45,
        7.5,
        7.552,
        7.581,
        7.665,
        7.707,
        7.789,
        7.814,
        7.886,
        7.909,
        7.931,
        7.978,
        8.0,
        8.023,
        8.061,
        8.133,
        8.167,
        8.215,
        8.254,
        8.294,
        8.309,
        8.335,
        8.41,
        8.445,
        8.499,
        8.549,
        8.592,
        8.627,
        8.66,
        8.72,
        8.777,
        8.812,
        8.952,
        8.989,
        9.04,
        9.094,
        9.11,
        9.123,
        9.203,
        9.318,
        9.364,
        9.375,
        9.467,
        9.537,
        9.582,
        9.625,
        9.658,
        9.704,
        9.741,
        9.797,
        9.808,
        9.829,
        9.852,
        9.885,
        9.941,
        9.987,
        9.997,
        10.01,
        10.045,
        10.077,
        10.089,
        10.135,
        10.268,
        10.332,
        10.393,
        10.486,
        10.532,
        10.567,
        10.593,
        10.687,
        10.699,
        10.717,
        10.736,
        10.756,
        10.79,
        10.871,
        10.925,
        10.966,
        10.979,
        10.991,
        11.071,
        11.14,
        11.19,
        11.226,
        11.271,
        11.354,
        11.387,
        11.403,
        11.415,
        11.426,
        11.437,
        11.495,
        11.517,
        11.541,
        11.555,
        11.565,
        11.589,
        11.666,
        11.757,
        11.772,
        11.783,
        11.808,
        11.831,
        11.867,
        11.913,
        11.926,
        11.96,
        12.02,
        12.058,
        12.123,
        12.228,
        12.25,
        12.275,
        12.296,
        12.321,
        12.358,
        12.435,
        12.54,
        12.595,
        12.621,
        12.713,
        12.741,
        12.782,
        12.838,
        12.883,
        12.962,
        13.005,
        13.033,
        13.072,
        13.095,
        13.106,
        13.129,
        13.15,
        13.164,
        13.192,
        13.202,
        13.255,
        13.29,
        13.301,
        13.37,
        13.404,
        13.415,
        13.449,
        13.47,
        13.494,
        13.504,
        13.516,
        13.527,
        13.56,
        13.606,
        13.65,
        13.681,
        13.75,
        13.788,
        13.799,
        13.832,
        13.869,
        13.88,
        13.933,
        13.982,
        13.997,
        14.01,
        14.035,
        14.082,
        14.096,
        14.165,
        14.203,
        14.239,
        14.263,
        14.276,
        14.331,
        14.342,
        14.354,
        14.38,
        14.405,
        14.449,
        14.532,
        14.542,
        14.563,
        14.585,
        14.609,
        14.623,
        14.633,
        14.682,
        14.695,
        14.721,
        14.791,
        14.801,
        14.836,
        14.857,
        14.933,
        14.946,
        15.004,
        15.028,
        15.058,
        15.069,
        15.093,
        15.162,
        15.183,
        15.206,
        15.217,
        15.252,
        15.3,
        15.336,
        15.361,
        15.374,
        15.397,
        15.42,
        15.43,
        15.453,
        15.476,
        15.519,
        15.532,
        15.581,
        15.685,
        15.708,
        15.761,
        15.784,
        15.795,
        15.819,
        15.843,
        15.877,
        15.935,
        15.947,
        16.003,
        16.038,
        16.049,
        16.061,
        16.085,
        16.108,
        16.182,
        16.194,
        16.242,
        16.277,
        16.313,
        16.324,
        16.337,
        16.372,
        16.382,
        16.395,
        16.461,
        16.497,
        16.567,
        16.603,
        16.615,
        16.653,
        16.667,
        16.718,
        16.74,
        16.765,
        16.792,
        16.863,
        16.885,
        16.997,
        17.019,
        17.054,
        17.064,
        17.076,
        17.094,
        17.117,
        17.154,
        17.176,
        17.189,
        17.227,
        17.249,
        17.295,
        17.343,
        17.376,
        17.396,
        17.408,
        17.508,
        17.603,
        17.629,
        17.64,
        17.672,
        17.725,
        17.74,
        17.752,
        17.775,
        17.797,
        17.831,
        17.852,
        17.877,
        17.912,
        17.958,
        17.969,
        17.98,
        17.994,
        18.017,
        18.027,
        18.052,
        18.108,
        18.157,
        18.179,
        18.191,
        18.203,
        18.238,
        18.277,
        18.331,
        18.342,
        18.383,
        18.394,
        18.423,
        18.435,
        18.472,
        18.502,
        18.539,
        18.563,
        18.574,
        18.587,
        18.6,
        18.61,
        18.646,
        18.718,
        18.74,
        18.752,
        18.767,
        18.794,
        18.821,
        18.834,
        18.866,
        18.889,
        18.9,
        18.912,
        18.933,
        18.955,
        18.988,
        19.014,
        19.039,
        19.08,
        19.124,
        19.222,
        19.258,
        19.298,
        19.325,
        19.346,
        19.368,
        19.379,
        19.39,
        19.423,
        19.435,
        19.5,
        19.536,
        19.573,
        19.616,
        19.651,
        19.704,
        19.725,
        19.773,
        19.799,
        19.811,
        19.835,
        19.871,
        19.903,
        19.974,
        19.997,
        20.008,
        20.054,
        20.067,
        20.104,
        20.136,
        20.222,
        20.282,
        20.313,
        20.376,
        20.428,
        20.453,
        20.493,
        20.505,
        20.538,
        20.549,
        20.572,
        20.595,
        20.627,
        20.685,
        20.696,
        20.708,
        20.732,
        20.742,
        20.775,
        20.801,
        20.859,
        20.906,
        20.919,
        20.93,
        20.968,
        21.038,
        21.067,
        21.11,
        21.121,
        21.134,
        21.157,
        21.174,
        21.19,
        21.224,
        21.282,
        21.297,
        21.31,
        21.334,
        21.415,
        21.476,
        21.521,
        21.57,
        21.621,
        21.634,
        21.645,
        21.659,
        21.67,
        21.692,
        21.754,
        21.8,
        21.824,
        21.834,
        21.881,
        21.891,
        21.915,
        21.943,
        22.016,
        22.041,
        22.065,
        22.091,
        22.115,
        22.17,
        22.229,
        22.278,
        22.342
      ]
    ]
  },
  "geometry": {
    "type": "MultiLineString",
    "coordinates": [
      [
        [
          25.769101,
          66.498528
        ],
        [
          25.768401,
          66.498457
        ]
      ],
      [
        [
          25.768401,
          66.498457
        ],
        [
          25.767557,
          66.498504
        ],
        [
          25.766896,
          66.498675
        ],
        [
          25.76671,
          66.498916
        ],
        [
          25.766242,
          66.4991
        ],
        [
          25.765963,
          66.49914
        ],
        [
          25.7653,
          66.499167
        ],
        [
          25.764594,
          66.499091
        ],
        [
          25.763588,
          66.499143
        ],
        [
          25.762956,
          66.499269
        ],
        [
          25.762207,
          66.499336
        ],
        [
          25.761585,
          66.499256
        ],
        [
          25.762404,
          66.499659
        ],
        [
          25.763377,
          66.500015
        ],
        [
          25.763371,
          66.500127
        ],
        [
          25.762942,
          66.500377
        ],
        [
          25.762005,
          66.5003
        ],
        [
          25.761745,
          66.500353
        ],
        [
          25.760984,
          66.50062
        ],
        [
          25.760768,
          66.500664
        ],
        [
          25.760328,
          66.500929
        ],
        [
          25.759665,
          66.501418
        ],
        [
          25.75969,
          66.501753
        ],
        [
          25.759591,
          66.501879
        ],
        [
          25.759058,
          66.502162
        ],
        [
          25.758645,
          66.50229
        ],
        [
          25.75855,
          66.502377
        ],
        [
          25.757794,
          66.502716
        ],
        [
          25.757518,
          66.50278
        ],
        [
          25.757277,
          66.502798
        ],
        [
          25.756238,
          66.502634
        ],
        [
          25.755953,
          66.502659
        ],
        [
          25.755956,
          66.502964
        ],
        [
          25.755891,
          66.503065
        ],
        [
          25.755504,
          66.503264
        ],
        [
          25.755173,
          66.503527
        ],
        [
          25.754887,
          66.503561
        ],
        [
          25.754627,
          66.50337
        ],
        [
          25.754101,
          66.503153
        ],
        [
          25.753826,
          66.503137
        ],
        [
          25.753303,
          66.503034
        ],
        [
          25.752796,
          66.503009
        ],
        [
          25.752345,
          66.502892
        ],
        [
          25.751632,
          66.502586
        ],
        [
          25.751591,
          66.502466
        ],
        [
          25.75228,
          66.502118
        ],
        [
          25.752444,
          66.501676
        ],
        [
          25.752615,
          66.501608
        ],
        [
          25.752828,
          66.501568
        ],
        [
          25.753013,
          66.501471
        ],
        [
          25.753407,
          66.501356
        ],
        [
          25.754278,
          66.501153
        ],
        [
          25.75583,
          66.500917
        ],
        [
          25.756106,
          66.500905
        ],
        [
          25.756249,
          66.500785
        ],
        [
          25.756498,
          66.500263
        ],
        [
          25.756631,
          66.500135
        ],
        [
          25.75685,
          66.500023
        ],
        [
          25.757312,
          66.499849
        ],
        [
          25.758804,
          66.499618
        ],
        [
          25.758844,
          66.499501
        ],
        [
          25.758766,
          66.499391
        ],
        [
          25.75887,
          66.499185
        ],
        [
          25.758819,
          66.499096
        ],
        [
          25.758573,
          66.499089
        ],
        [
          25.758065,
          66.49915
        ],
        [
          25.757228,
          66.499135
        ],
        [
          25.757299,
          66.499367
        ],
        [
          25.756936,
          66.499672
        ],
        [
          25.756833,
          66.499826
        ],
        [
          25.755984,
          66.500005
        ],
        [
          25.755795,
          66.500097
        ],
        [
          25.755521,
          66.500169
        ],
        [
          25.755453,
          66.500289
        ],
        [
          25.755006,
          66.500473
        ],
        [
          25.754416,
          66.500655
        ],
        [
          25.753786,
          66.501
        ],
        [
          25.75355,
          66.501047
        ],
        [
          25.753445,
          66.501138
        ],
        [
          25.752947,
          66.501313
        ],
        [
          25.752615,
          66.501485
        ],
        [
          25.752354,
          66.501555
        ],
        [
          25.751655,
          66.50154
        ],
        [
          25.751356,
          66.501582
        ],
        [
          25.751111,
          66.501686
        ],
        [
          25.750899,
          66.502095
        ],
        [
          25.751047,
          66.502443
        ],
        [
          25.751081,
          66.502788
        ],
        [
          25.75138,
          66.503318
        ],
        [
          25.751318,
          66.50341
        ],
        [
          25.751854,
          66.503883
        ],
        [
          25.752044,
          66.503969
        ],
        [
          25.752971,
          66.504238
        ],
        [
          25.754072,
          66.504658
        ],
        [
          25.754865,
          66.504775
        ],
        [
          25.75576,
          66.505091
        ],
        [
          25.756581,
          66.505316
        ],
        [
          25.757771,
          66.505878
        ],
        [
          25.757993,
          66.50605
        ],
        [
          25.75846,
          66.506578
        ],
        [
          25.758994,
          66.506918
        ],
        [
          25.759492,
          66.507121
        ],
        [
          25.759788,
          66.507188
        ],
        [
          25.760254,
          66.507352
        ],
        [
          25.760498,
          66.507391
        ],
        [
          25.760814,
          66.507397
        ],
        [
          25.760486,
          66.507227
        ],
        [
          25.760254,
          66.506924
        ],
        [
          25.759814,
          66.50665
        ],
        [
          25.759638,
          66.506585
        ],
        [
          25.759418,
          66.5063
        ],
        [
          25.759402,
          66.506074
        ],
        [
          25.75953,
          66.505779
        ],
        [
          25.759869,
          66.505615
        ],
        [
          25.760396,
          66.505527
        ],
        [
          25.76087,
          66.50559
        ],
        [
          25.761992,
          66.505891
        ],
        [
          25.763128,
          66.506039
        ],
        [
          25.763651,
          66.506013
        ],
        [
          25.763606,
          66.505905
        ],
        [
          25.763194,
          66.505793
        ],
        [
          25.763143,
          66.505679
        ],
        [
          25.763233,
          66.505474
        ],
        [
          25.763536,
          66.505182
        ],
        [
          25.76367,
          66.505109
        ],
        [
          25.763969,
          66.505091
        ],
        [
          25.764918,
          66.505375
        ],
        [
          25.767868,
          66.505758
        ],
        [
          25.768405,
          66.50575
        ],
        [
          25.768878,
          66.505649
        ],
        [
          25.769418,
          66.505611
        ],
        [
          25.770544,
          66.505643
        ],
        [
          25.77111,
          66.505629
        ],
        [
          25.771816,
          66.505544
        ],
        [
          25.772055,
          66.505543
        ],
        [
          25.772795,
          66.505379
        ],
        [
          25.773075,
          66.505396
        ],
        [
          25.773763,
          66.505516
        ],
        [
          25.774154,
          66.505539
        ],
        [
          25.775159,
          66.505526
        ],
        [
          25.776659,
          66.505798
        ],
        [
          25.777111,
          66.505835
        ],
        [
          25.778062,
          66.505786
        ],
        [
          25.778303,
          66.505843
        ],
        [
          25.778304,
          66.505973
        ],
        [
          25.777299,
          66.505984
        ],
        [
          25.777072,
          66.506023
        ],
        [
          25.777236,
          66.50612
        ],
        [
          25.777808,
          66.506138
        ],
        [
          25.77802,
          66.506181
        ],
        [
          25.778045,
          66.506287
        ],
        [
          25.77769,
          66.506519
        ],
        [
          25.777164,
          66.506726
        ],
        [
          25.776743,
          66.506785
        ],
        [
          25.776185,
          66.506763
        ],
        [
          25.775987,
          66.506806
        ],
        [
          25.776101,
          66.5069
        ],
        [
          25.776453,
          66.506882
        ],
        [
          25.777122,
          66.507016
        ],
        [
          25.777871,
          66.5071
        ],
        [
          25.778144,
          66.507087
        ],
        [
          25.779643,
          66.50681
        ],
        [
          25.779936,
          66.506836
        ],
        [
          25.780226,
          66.506946
        ],
        [
          25.780758,
          66.507425
        ],
        [
          25.781206,
          66.507742
        ],
        [
          25.781601,
          66.507906
        ],
        [
          25.782073,
          66.50797
        ],
        [
          25.782502,
          66.507954
        ],
        [
          25.7837,
          66.507833
        ],
        [
          25.785635,
          66.507849
        ],
        [
          25.787825,
          66.507816
        ],
        [
          25.789209,
          66.507843
        ],
        [
          25.789542,
          66.507821
        ],
        [
          25.79162,
          66.507589
        ],
        [
          25.792067,
          66.50747
        ],
        [
          25.792748,
          66.507129
        ],
        [
          25.792973,
          66.50715
        ],
        [
          25.79323,
          66.507103
        ],
        [
          25.796536,
          66.506776
        ],
        [
          25.797414,
          66.506823
        ],
        [
          25.798935,
          66.506848
        ],
        [
          25.800463,
          66.506653
        ],
        [
          25.800987,
          66.506536
        ],
        [
          25.801138,
          66.506428
        ],
        [
          25.80136,
          66.506351
        ],
        [
          25.801868,
          66.506322
        ],
        [
          25.802978,
          66.506419
        ],
        [
          25.803306,
          66.506524
        ],
        [
          25.80439,
          66.507166
        ],
        [
          25.804574,
          66.507233
        ],
        [
          25.804336,
          66.507439
        ],
        [
          25.803957,
          66.507545
        ],
        [
          25.803568,
          66.507702
        ],
        [
          25.802591,
          66.508178
        ],
        [
          25.802081,
          66.508831
        ],
        [
          25.802208,
          66.508916
        ],
        [
          25.803408,
          66.508804
        ],
        [
          25.804357,
          66.508767
        ],
        [
          25.80622,
          66.508764
        ],
        [
          25.80704,
          66.508813
        ],
        [
          25.80727,
          66.508786
        ],
        [
          25.807432,
          66.508705
        ],
        [
          25.807515,
          66.508593
        ],
        [
          25.80765,
          66.508274
        ],
        [
          25.807635,
          66.508157
        ],
        [
          25.807795,
          66.507953
        ],
        [
          25.808375,
          66.507728
        ],
        [
          25.808721,
          66.507632
        ],
        [
          25.809033,
          66.507584
        ],
        [
          25.809393,
          66.507699
        ],
        [
          25.809682,
          66.507697
        ],
        [
          25.810376,
          66.50755
        ],
        [
          25.810892,
          66.507559
        ],
        [
          25.811104,
          66.507517
        ],
        [
          25.811237,
          66.507434
        ],
        [
          25.813184,
          66.507354
        ],
        [
          25.814226,
          66.50743
        ],
        [
          25.814911,
          66.507397
        ],
        [
          25.815466,
          66.507405
        ],
        [
          25.81612,
          66.507304
        ],
        [
          25.816292,
          66.507201
        ],
        [
          25.816596,
          66.506829
        ],
        [
          25.816785,
          66.506036
        ],
        [
          25.816867,
          66.505933
        ],
        [
          25.817053,
          66.505831
        ],
        [
          25.818277,
          66.505418
        ],
        [
          25.818731,
          66.505297
        ],
        [
          25.819261,
          66.505096
        ],
        [
          25.819661,
          66.504835
        ],
        [
          25.820049,
          66.504715
        ],
        [
          25.821145,
          66.504608
        ],
        [
          25.822291,
          66.504715
        ],
        [
          25.822934,
          66.504696
        ],
        [
          25.824741,
          66.504468
        ],
        [
          25.825528,
          66.504262
        ],
        [
          25.827314,
          66.50407
        ],
        [
          25.827747,
          66.503927
        ],
        [
          25.828602,
          66.503386
        ],
        [
          25.829009,
          66.503262
        ],
        [
          25.829345,
          66.50311
        ],
        [
          25.829956,
          66.502763
        ],
        [
          25.830121,
          66.502584
        ],
        [
          25.830495,
          66.502442
        ],
        [
          25.831256,
          66.502289
        ],
        [
          25.83255,
          66.501901
        ],
        [
          25.833265,
          66.501778
        ],
        [
          25.834325,
          66.501723
        ],
        [
          25.835149,
          66.501593
        ],
        [
          25.83603,
          66.501572
        ],
        [
          25.83634,
          66.501521
        ],
        [
          25.836672,
          66.50132
        ],
        [
          25.837903,
          66.500866
        ],
        [
          25.838284,
          66.500596
        ],
        [
          25.839206,
          66.500278
        ],
        [
          25.839934,
          66.499935
        ],
        [
          25.840731,
          66.499717
        ],
        [
          25.841464,
          66.49961
        ],
        [
          25.842088,
          66.499452
        ],
        [
          25.842978,
          66.499037
        ],
        [
          25.843484,
          66.498576
        ],
        [
          25.843881,
          66.4983
        ],
        [
          25.845033,
          66.49713
        ],
        [
          25.845271,
          66.496815
        ],
        [
          25.84578,
          66.496402
        ],
        [
          25.846129,
          66.495937
        ],
        [
          25.846322,
          66.495815
        ],
        [
          25.846354,
          66.495704
        ],
        [
          25.847112,
          66.495054
        ],
        [
          25.84809,
          66.494096
        ],
        [
          25.848559,
          66.493727
        ],
        [
          25.848583,
          66.493634
        ],
        [
          25.849331,
          66.492868
        ],
        [
          25.849982,
          66.492296
        ],
        [
          25.850269,
          66.491906
        ],
        [
          25.85074,
          66.491568
        ],
        [
          25.850948,
          66.491287
        ],
        [
          25.851525,
          66.490938
        ],
        [
          25.851912,
          66.490645
        ],
        [
          25.852682,
          66.490246
        ],
        [
          25.852897,
          66.490198
        ],
        [
          25.853157,
          66.49005
        ],
        [
          25.853302,
          66.489849
        ],
        [
          25.853329,
          66.489556
        ],
        [
          25.853881,
          66.489097
        ],
        [
          25.854371,
          66.488742
        ],
        [
          25.854545,
          66.488683
        ],
        [
          25.854641,
          66.488574
        ],
        [
          25.854587,
          66.488259
        ],
        [
          25.85444,
          66.487978
        ],
        [
          25.854172,
          66.487965
        ],
        [
          25.853201,
          66.488102
        ],
        [
          25.850525,
          66.488645
        ],
        [
          25.849388,
          66.488996
        ],
        [
          25.848222,
          66.489277
        ],
        [
          25.846591,
          66.489798
        ],
        [
          25.845648,
          66.489974
        ],
        [
          25.845075,
          66.490185
        ],
        [
          25.844748,
          66.490375
        ],
        [
          25.84379,
          66.491124
        ],
        [
          25.843744,
          66.491231
        ],
        [
          25.843542,
          66.491378
        ],
        [
          25.843259,
          66.491497
        ],
        [
          25.842909,
          66.491616
        ],
        [
          25.842267,
          66.491771
        ],
        [
          25.840564,
          66.492035
        ],
        [
          25.839603,
          66.492337
        ],
        [
          25.838771,
          66.492477
        ],
        [
          25.838464,
          66.492484
        ],
        [
          25.838231,
          66.49244
        ],
        [
          25.836435,
          66.492366
        ],
        [
          25.834976,
          66.49217
        ],
        [
          25.833986,
          66.491948
        ],
        [
          25.833196,
          66.491935
        ],
        [
          25.832227,
          66.491793
        ],
        [
          25.83037,
          66.491788
        ],
        [
          25.829696,
          66.491898
        ],
        [
          25.829331,
          66.491908
        ],
        [
          25.829057,
          66.491884
        ],
        [
          25.828963,
          66.491795
        ],
        [
          25.829024,
          66.491701
        ],
        [
          25.830063,
          66.491387
        ],
        [
          25.830107,
          66.491191
        ],
        [
          25.829981,
          66.49098
        ],
        [
          25.829824,
          66.490874
        ],
        [
          25.829624,
          66.490823
        ],
        [
          25.829104,
          66.490796
        ],
        [
          25.827367,
          66.490778
        ],
        [
          25.825501,
          66.491113
        ],
        [
          25.825246,
          66.491202
        ],
        [
          25.825019,
          66.491229
        ],
        [
          25.824556,
          66.491362
        ],
        [
          25.824075,
          66.491432
        ],
        [
          25.823427,
          66.491617
        ],
        [
          25.822653,
          66.491898
        ],
        [
          25.822387,
          66.491952
        ],
        [
          25.82186,
          66.492168
        ],
        [
          25.82074,
          66.49246
        ],
        [
          25.820072,
          66.492684
        ],
        [
          25.81885,
          66.492988
        ],
        [
          25.817316,
          66.493704
        ],
        [
          25.816935,
          66.493839
        ],
        [
          25.816437,
          66.49394
        ],
        [
          25.815981,
          66.493994
        ],
        [
          25.815435,
          66.494004
        ],
        [
          25.814624,
          66.494076
        ],
        [
          25.812909,
          66.494169
        ],
        [
          25.810609,
          66.494373
        ],
        [
          25.809374,
          66.494453
        ],
        [
          25.808822,
          66.494521
        ],
        [
          25.8069,
          66.494821
        ],
        [
          25.806368,
          66.494957
        ],
        [
          25.805699,
          66.495204
        ],
        [
          25.804581,
          66.495448
        ],
        [
          25.803639,
          66.495578
        ],
        [
          25.801899,
          66.495716
        ],
        [
          25.801004,
          66.495869
        ],
        [
          25.800384,
          66.495887
        ],
        [
          25.799513,
          66.495859
        ],
        [
          25.79956,
          66.496071
        ],
        [
          25.799352,
          66.496119
        ],
        [
          25.798835,
          66.496115
        ],
        [
          25.798379,
          66.496164
        ],
        [
          25.798078,
          66.496141
        ],
        [
          25.797563,
          66.496001
        ],
        [
          25.797459,
          66.495921
        ],
        [
          25.796644,
          66.495566
        ],
        [
          25.796255,
          66.495301
        ],
        [
          25.795993,
          66.495287
        ],
        [
          25.7946,
          66.49555
        ],
        [
          25.793842,
          66.495565
        ],
        [
          25.793593,
          66.495548
        ],
        [
          25.792899,
          66.495412
        ],
        [
          25.792431,
          66.495413
        ],
        [
          25.791925,
          66.495349
        ],
        [
          25.791739,
          66.495297
        ],
        [
          25.791477,
          66.49531
        ],
        [
          25.791228,
          66.495279
        ],
        [
          25.790492,
          66.495281
        ],
        [
          25.789528,
          66.495416
        ],
        [
          25.788535,
          66.49539
        ],
        [
          25.788347,
          66.495657
        ],
        [
          25.788373,
          66.496278
        ],
        [
          25.788603,
          66.496601
        ],
        [
          25.788532,
          66.496696
        ],
        [
          25.787935,
          66.496877
        ],
        [
          25.787199,
          66.497023
        ],
        [
          25.78696,
          66.497054
        ],
        [
          25.785762,
          66.497066
        ],
        [
          25.78468,
          66.49715
        ],
        [
          25.784403,
          66.497225
        ],
        [
          25.784247,
          66.497321
        ],
        [
          25.784077,
          66.497534
        ],
        [
          25.784277,
          66.497951
        ],
        [
          25.784411,
          66.498066
        ],
        [
          25.785478,
          66.498517
        ],
        [
          25.785954,
          66.498797
        ],
        [
          25.786536,
          66.499019
        ],
        [
          25.787055,
          66.499083
        ],
        [
          25.787313,
          66.499032
        ],
        [
          25.788544,
          66.499075
        ],
        [
          25.788784,
          66.49904
        ],
        [
          25.788951,
          66.498963
        ],
        [
          25.789509,
          66.498895
        ],
        [
          25.790002,
          66.498778
        ],
        [
          25.790794,
          66.498538
        ],
        [
          25.792483,
          66.498238
        ],
        [
          25.792665,
          66.498179
        ],
        [
          25.793129,
          66.498179
        ],
        [
          25.793615,
          66.498131
        ],
        [
          25.794044,
          66.497997
        ],
        [
          25.794355,
          66.497994
        ],
        [
          25.794505,
          66.497927
        ],
        [
          25.795404,
          66.497683
        ],
        [
          25.7957,
          66.497655
        ],
        [
          25.796182,
          66.497521
        ],
        [
          25.797619,
          66.497269
        ],
        [
          25.797774,
          66.497201
        ],
        [
          25.798418,
          66.497034
        ],
        [
          25.798887,
          66.496983
        ],
        [
          25.800354,
          66.496643
        ],
        [
          25.800568,
          66.496568
        ],
        [
          25.80177,
          66.49635
        ],
        [
          25.802283,
          66.496311
        ],
        [
          25.802914,
          66.496201
        ],
        [
          25.803151,
          66.496198
        ],
        [
          25.803671,
          66.496131
        ],
        [
          25.80505,
          66.495841
        ],
        [
          25.805508,
          66.495806
        ],
        [
          25.805945,
          66.495704
        ],
        [
          25.806196,
          66.495681
        ],
        [
          25.806822,
          66.495493
        ],
        [
          25.807456,
          66.49515
        ],
        [
          25.808186,
          66.495002
        ],
        [
          25.808712,
          66.494933
        ],
        [
          25.809005,
          66.494962
        ],
        [
          25.809515,
          66.494936
        ],
        [
          25.809995,
          66.494999
        ],
        [
          25.810223,
          66.494998
        ],
        [
          25.81069,
          66.495083
        ],
        [
          25.811201,
          66.495034
        ],
        [
          25.812164,
          66.495078
        ],
        [
          25.812438,
          66.495119
        ],
        [
          25.813539,
          66.49516
        ],
        [
          25.815832,
          66.494996
        ],
        [
          25.8163,
          66.494905
        ],
        [
          25.817447,
          66.494793
        ],
        [
          25.817937,
          66.494718
        ],
        [
          25.818117,
          66.494647
        ],
        [
          25.818309,
          66.494452
        ],
        [
          25.818414,
          66.494242
        ],
        [
          25.81877,
          66.493974
        ],
        [
          25.819773,
          66.49363
        ],
        [
          25.819904,
          66.493541
        ],
        [
          25.820826,
          66.4932
        ],
        [
          25.821517,
          66.493055
        ],
        [
          25.821706,
          66.492984
        ],
        [
          25.821962,
          66.492967
        ],
        [
          25.822446,
          66.492876
        ],
        [
          25.822835,
          66.492733
        ],
        [
          25.824372,
          66.492495
        ],
        [
          25.824656,
          66.492488
        ],
        [
          25.825647,
          66.492331
        ],
        [
          25.826411,
          66.492259
        ],
        [
          25.827082,
          66.492075
        ],
        [
          25.827327,
          66.492048
        ],
        [
          25.827609,
          66.492086
        ],
        [
          25.828388,
          66.492089
        ],
        [
          25.828402,
          66.492181
        ],
        [
          25.828144,
          66.49223
        ],
        [
          25.826717,
          66.492377
        ],
        [
          25.825992,
          66.492528
        ],
        [
          25.824743,
          66.492904
        ],
        [
          25.824022,
          66.493063
        ],
        [
          25.823836,
          66.493136
        ],
        [
          25.82307,
          66.493293
        ],
        [
          25.822851,
          66.493373
        ],
        [
          25.822278,
          66.49377
        ],
        [
          25.821922,
          66.493909
        ],
        [
          25.821426,
          66.494022
        ],
        [
          25.820835,
          66.494075
        ],
        [
          25.819399,
          66.494338
        ],
        [
          25.818982,
          66.49445
        ],
        [
          25.818061,
          66.495387
        ],
        [
          25.817679,
          66.495512
        ],
        [
          25.817337,
          66.495793
        ],
        [
          25.817176,
          66.495858
        ],
        [
          25.817108,
          66.495959
        ],
        [
          25.81686,
          66.496082
        ],
        [
          25.816427,
          66.496209
        ],
        [
          25.815913,
          66.496464
        ],
        [
          25.815478,
          66.496563
        ],
        [
          25.815307,
          66.496654
        ],
        [
          25.814568,
          66.496827
        ],
        [
          25.814197,
          66.496953
        ],
        [
          25.813746,
          66.497331
        ],
        [
          25.813378,
          66.497734
        ],
        [
          25.812996,
          66.497981
        ],
        [
          25.812916,
          66.498163
        ],
        [
          25.812752,
          66.498244
        ],
        [
          25.811973,
          66.499087
        ],
        [
          25.811149,
          66.499874
        ],
        [
          25.810854,
          66.50007
        ],
        [
          25.810647,
          66.50012
        ],
        [
          25.810541,
          66.500408
        ],
        [
          25.810206,
          66.500869
        ],
        [
          25.809927,
          66.500939
        ],
        [
          25.809659,
          66.500946
        ],
        [
          25.809227,
          66.50105
        ],
        [
          25.808732,
          66.501073
        ],
        [
          25.808087,
          66.501248
        ],
        [
          25.807758,
          66.501377
        ],
        [
          25.807257,
          66.501486
        ],
        [
          25.806755,
          66.501725
        ],
        [
          25.805991,
          66.501999
        ],
        [
          25.805765,
          66.502044
        ],
        [
          25.805516,
          66.502039
        ],
        [
          25.805252,
          66.501978
        ],
        [
          25.804742,
          66.501939
        ],
        [
          25.804576,
          66.501878
        ],
        [
          25.804527,
          66.50165
        ],
        [
          25.804018,
          66.501192
        ],
        [
          25.803838,
          66.500758
        ],
        [
          25.803873,
          66.500562
        ],
        [
          25.804048,
          66.500489
        ],
        [
          25.804098,
          66.500381
        ],
        [
          25.804659,
          66.500165
        ],
        [
          25.805173,
          66.499873
        ],
        [
          25.806161,
          66.499599
        ],
        [
          25.806296,
          66.499519
        ],
        [
          25.80707,
          66.499315
        ],
        [
          25.807237,
          66.499236
        ],
        [
          25.807514,
          66.499009
        ],
        [
          25.807751,
          66.498944
        ],
        [
          25.808506,
          66.499077
        ],
        [
          25.809036,
          66.499244
        ],
        [
          25.809798,
          66.499379
        ],
        [
          25.810328,
          66.499376
        ],
        [
          25.810563,
          66.499336
        ],
        [
          25.810784,
          66.49926
        ],
        [
          25.81088,
          66.499156
        ],
        [
          25.810783,
          66.499075
        ],
        [
          25.810941,
          66.498754
        ],
        [
          25.810796,
          66.498114
        ],
        [
          25.810473,
          66.497961
        ],
        [
          25.81021,
          66.497993
        ],
        [
          25.810015,
          66.498094
        ],
        [
          25.809522,
          66.498236
        ],
        [
          25.808914,
          66.498236
        ],
        [
          25.808848,
          66.498123
        ],
        [
          25.808943,
          66.497835
        ],
        [
          25.808788,
          66.497636
        ],
        [
          25.808634,
          66.497559
        ],
        [
          25.80838,
          66.497537
        ],
        [
          25.80792,
          66.497564
        ],
        [
          25.807808,
          66.497765
        ],
        [
          25.807249,
          66.49795
        ],
        [
          25.806725,
          66.498057
        ],
        [
          25.806432,
          66.498249
        ],
        [
          25.805841,
          66.498533
        ],
        [
          25.805109,
          66.498796
        ],
        [
          25.804373,
          66.499623
        ],
        [
          25.804207,
          66.499942
        ],
        [
          25.803912,
          66.50028
        ],
        [
          25.803599,
          66.500482
        ],
        [
          25.803177,
          66.500578
        ],
        [
          25.802724,
          66.500643
        ],
        [
          25.802468,
          66.500631
        ],
        [
          25.802248,
          66.500664
        ],
        [
          25.801508,
          66.500598
        ],
        [
          25.801285,
          66.500544
        ],
        [
          25.799853,
          66.500449
        ],
        [
          25.799116,
          66.500586
        ],
        [
          25.798443,
          66.50079
        ],
        [
          25.797532,
          66.500918
        ],
        [
          25.796856,
          66.501073
        ],
        [
          25.795899,
          66.501349
        ],
        [
          25.795452,
          66.50142
        ],
        [
          25.794649,
          66.5017
        ],
        [
          25.794111,
          66.501796
        ],
        [
          25.793887,
          66.501866
        ],
        [
          25.793399,
          66.501935
        ],
        [
          25.792581,
          66.501938
        ],
        [
          25.791928,
          66.502067
        ],
        [
          25.790716,
          66.502473
        ],
        [
          25.790251,
          66.502573
        ],
        [
          25.790017,
          66.502573
        ],
        [
          25.789529,
          66.502941
        ],
        [
          25.789284,
          66.50301
        ],
        [
          25.788458,
          66.503006
        ],
        [
          25.787799,
          66.50289
        ],
        [
          25.78595,
          66.503101
        ],
        [
          25.784961,
          66.503466
        ],
        [
          25.784336,
          66.503588
        ],
        [
          25.782994,
          66.503761
        ],
        [
          25.781841,
          66.503836
        ],
        [
          25.781302,
          66.503898
        ],
        [
          25.78043,
          66.503792
        ],
        [
          25.780172,
          66.503786
        ],
        [
          25.779847,
          66.504053
        ],
        [
          25.779668,
          66.50412
        ],
        [
          25.779135,
          66.5041
        ],
        [
          25.778703,
          66.504197
        ],
        [
          25.777983,
          66.504186
        ],
        [
          25.776689,
          66.504289
        ],
        [
          25.776478,
          66.50424
        ],
        [
          25.776507,
          66.504133
        ],
        [
          25.77641,
          66.503927
        ],
        [
          25.776571,
          66.503853
        ],
        [
          25.777282,
          66.503771
        ],
        [
          25.777731,
          66.503628
        ],
        [
          25.778888,
          66.503382
        ],
        [
          25.779747,
          66.503136
        ],
        [
          25.779934,
          66.503054
        ],
        [
          25.779805,
          66.502966
        ],
        [
          25.779206,
          66.502723
        ],
        [
          25.778536,
          66.502154
        ],
        [
          25.778729,
          66.501909
        ],
        [
          25.779512,
          66.501675
        ],
        [
          25.77956,
          66.501584
        ],
        [
          25.779333,
          66.501505
        ],
        [
          25.779285,
          66.501302
        ],
        [
          25.779092,
          66.501175
        ],
        [
          25.778796,
          66.501079
        ],
        [
          25.778389,
          66.500827
        ],
        [
          25.777509,
          66.500439
        ],
        [
          25.777347,
          66.500325
        ],
        [
          25.777385,
          66.500208
        ],
        [
          25.777834,
          66.500089
        ],
        [
          25.779537,
          66.499829
        ],
        [
          25.780685,
          66.499537
        ],
        [
          25.781642,
          66.499392
        ],
        [
          25.782579,
          66.499165
        ],
        [
          25.783598,
          66.498969
        ],
        [
          25.783768,
          66.498871
        ],
        [
          25.783799,
          66.498771
        ],
        [
          25.78366,
          66.498662
        ],
        [
          25.783457,
          66.498598
        ],
        [
          25.78297,
          66.498576
        ],
        [
          25.781689,
          66.498801
        ],
        [
          25.780782,
          66.498615
        ],
        [
          25.780481,
          66.498434
        ],
        [
          25.780245,
          66.498431
        ],
        [
          25.779288,
          66.49859
        ],
        [
          25.779052,
          66.498603
        ],
        [
          25.778517,
          66.498571
        ],
        [
          25.777948,
          66.498481
        ],
        [
          25.776312,
          66.498535
        ],
        [
          25.775766,
          66.498464
        ],
        [
          25.775222,
          66.498465
        ],
        [
          25.774683,
          66.498382
        ],
        [
          25.774144,
          66.498374
        ],
        [
          25.772942,
          66.498466
        ],
        [
          25.771604,
          66.498499
        ],
        [
          25.770521,
          66.498585
        ],
        [
          25.769101,
          66.498528
        ]
      ]
    ]
  }
}
