{
  "type": "Feature",
  "properties": {
    "id": "ounasvaara-trail-center-torma",
    "km": [
      0.0,
      0.03,
      0.073,
      0.085,
      0.104,
      0.115,
      0.12,
      0.149,
      0.164,
      0.176,
      0.195,
      0.205,
      0.229,
      0.247,
      0.261,
      0.267,
      0.293,
      0.305,
      0.309,
      0.324,
      0.342,
      0.375,
      0.4,
      0.407,
      0.423,
      0.456,
      0.475,
      0.505,
      0.526,
      0.548
    ]
  },
  "geometry": {
    "type": "LineString",
    "coordinates": [
      [
        25.779731,
        66.504124
      ],
      [
        25.780148,
        66.504332
      ],
      [
        25.78101,
        66.504503
      ],
      [
        25.780897,
        66.504607
      ],
      [
        25.781323,
        66.504579
      ],
      [
        25.781518,
        66.504636
      ],
      [
        25.781523,
        66.504678
      ],
      [
        25.7812,
        66.504903
      ],
      [
        25.781534,
        66.504941
      ],
      [
        25.781508,
        66.505045
      ],
      [
        25.781938,
        66.505017
      ],
      [
        25.782105,
        66.505073
      ],
      [
        25.782119,
        66.505285
      ],
      [
        25.781982,
        66.505443
      ],
      [
        25.78174,
        66.505516
      ],
      [
        25.781776,
        66.505571
      ],
      [
        25.782362,
        66.505564
      ],
      [
        25.782231,
        66.505657
      ],
      [
        25.782272,
        66.505685
      ],
      [
        25.782583,
        66.505626
      ],
      [
        25.782974,
        66.505643
      ],
      [
        25.782712,
        66.505927
      ],
      [
        25.782418,
        66.506111
      ],
      [
        25.78244,
        66.506179
      ],
      [
        25.782619,
        66.506301
      ],
      [
        25.783356,
        66.506333
      ],
      [
        25.783037,
        66.506448
      ],
      [
        25.783654,
        66.506547
      ],
      [
        25.783435,
        66.50672
      ],
      [
        25.783706,
        66.506876
      ]
    ]
  }
}
