{
  "type": "Feature",
  "properties": {
    "id": "jump-ramp",
    "km": [
      0.0,
      0.014,
      0.031,
      0.037,
      0.057,
      0.068,
      0.129,
      0.201,
      0.236,
      0.282,
      0.287,
      0.299,
      0.306,
      0.335,
      0.343,
      0.368,
      0.4,
      0.452,
      0.494,
      0.516,
      0.547,
      0.639,
      0.696,
      0.732,
      0.745,
      0.751,
      0.756,
      0.814,
      0.893,
      0.928,
      0.974,
      1.022,
      1.052,
      1.12,
      1.135,
      1.149,
      1.182,
      1.241,
      1.258,
      1.323,
      1.352
    ]
  },
  "geometry": {
    "type": "LineString",
    "coordinates": [
      [
        25.787326,
        66.502108
      ],
      [
        25.787393,
        66.502228
      ],
      [
        25.787153,
        66.502354
      ],
      [
        25.787139,
        66.502408
      ],
      [
        25.787294,
        66.502571
      ],
      [
        25.787196,
        66.502659
      ],
      [
        25.788383,
        66.502939
      ],
      [
        25.789951,
        66.503099
      ],
      [
        25.790641,
        66.503253
      ],
      [
        25.791677,
        66.50325
      ],
      [
        25.791726,
        66.503289
      ],
      [
        25.791555,
        66.50337
      ],
      [
        25.79159,
        66.503427
      ],
      [
        25.792233,
        66.503494
      ],
      [
        25.792301,
        66.50356
      ],
      [
        25.792831,
        66.503633
      ],
      [
        25.793415,
        66.503807
      ],
      [
        25.79455,
        66.503916
      ],
      [
        25.795358,
        66.504107
      ],
      [
        25.795693,
        66.504252
      ],
      [
        25.796394,
        66.504267
      ],
      [
        25.79833,
        66.504545
      ],
      [
        25.799577,
        66.504647
      ],
      [
        25.80039,
        66.504648
      ],
      [
        25.800638,
        66.504708
      ],
      [
        25.800637,
        66.504762
      ],
      [
        25.800556,
        66.504797
      ],
      [
        25.799284,
        66.504906
      ],
      [
        25.797783,
        66.505292
      ],
      [
        25.797043,
        66.505374
      ],
      [
        25.796148,
        66.505584
      ],
      [
        25.795087,
        66.505653
      ],
      [
        25.794498,
        66.505788
      ],
      [
        25.793363,
        66.506196
      ],
      [
        25.793054,
        66.506248
      ],
      [
        25.792885,
        66.506359
      ],
      [
        25.792274,
        66.506517
      ],
      [
        25.791055,
        66.506723
      ],
      [
        25.790663,
        66.506715
      ],
      [
        25.789448,
        66.50703
      ],
      [
        25.788815,
        66.507103
      ]
    ]
  }
}
