{
  "type": "Feature",
  "properties": {
    "id": "arctic-by-cycle-central-lapland-gravel-loop",
    "km": [
      [
        0.0,
        0.024,
        0.098,
        0.324,
        0.493,
        0.583,
        0.743,
        0.862,
        1.159,
        1.687,
        1.756,
        1.917,
        1.999,
        2.634,
        2.839,
        2.908,
        2.979,
        3.171,
        3.244,
        3.713,
        3.896,
        3.955,
        4.264,
        4.346,
        4.437,
        4.658,
        4.815,
        4.914,
        4.98,
        5.075,
        5.396,
        5.424,
        5.653,
        5.715,
        5.995,
        6.159,
        6.242,
        6.281,
        6.704,
        6.773,
        6.901,
        7.183,
        7.773,
        8.311,
        8.987,
        9.029,
        9.167,
        9.195,
        9.736,
        10.116,
        10.177,
        10.611,
        10.682,
        11.925,
        12.308,
        12.507,
        12.73,
        13.093,
        13.232,
        13.474,
        13.762,
        13.832,
        13.917,
        13.974,
        14.111,
        14.205,
        14.394,
        14.571,
        14.637,
        14.703,
        15.057,
        15.207,
        15.492,
        15.592,
        15.811,
        15.945,
        16.163,
        16.225,
        16.391,
        16.535,
        16.914,
        17.143,
        17.465,
        17.597,
        17.853,
        18.046,
        18.219,
        18.329,
        18.534,
        18.755,
        18.781,
        18.921,
        19.067,
        19.455,
        19.723,
        20.147,
        20.406,
        20.62,
        21.141,
        21.244,
        21.371,
        21.601,
        21.761,
        21.873,
        22.302,
        22.47,
        22.604,
        22.94,
        23.123,
        23.274,
        23.58,
        24.752,
        26.538,
        27.151,
        27.62,
        28.042,
        28.829,
        29.088,
        30.076,
        30.276,
        30.451,
        30.615,
        30.765,
        31.009,
        31.451,
        31.668,
        31.753,
        31.959,
        32.251,
        32.815,
        33.703,
        33.769,
        34.144,
        34.207,
        34.275,
        34.359,
        34.426,
        34.985,
        35.464,
        35.635,
        35.885,
        36.258,
        36.631,
        36.737,
        36.819,
        37.014,
        37.133,
        37.821,
        37.923,
        38.018,
        38.101,
        38.174,
        38.439,
        38.498,
        38.546,
        38.964,
        39.176,
        39.874,
        40.755,
        41.731,
        41.962,
        42.599,
        42.727,
        42.885,
        43.057,
        43.318,
        43.41,
        43.605,
        44.017,
        44.226,
        44.479,
        44.834,
        44.956,
        45.426,
        45.545,
        45.724,
        45.859,
        46.356,
        46.426,
        46.679,
        46.852,
        47.476,
        47.874,
        48.128,
        48.211,
        48.463,
        48.63,
        48.832,
        49.016,
        49.169,
        49.407,
        49.511,
        49.576,
        49.67,
        49.961,
        50.574,
        50.684,
        50.8,
        51.145,
        51.249,
        51.378,
        51.528,
        51.712,
        51.773,
        51.927,
        51.971,
        52.039,
        52.073,
        52.253,
        52.419,
        52.484,
        52.731,
        53.119,
        53.337,
        53.805,
        54.055,
        54.189,
        54.451,
        54.554,
        54.899,
        55.065,
        55.53,
        55.65,
        55.692,
        55.759,
        55.855,
        55.949,
        56.068,
        56.545,
        57.015,
        57.315,
        57.428,
        58.316,
        58.42,
        58.587,
        59.21,
        60.276,
        61.247,
        61.505,
        63.752,
        64.018,
        64.858,
        65.108,
        65.44,
        65.584,
        66.21,
        66.331,
        66.593,
        67.549,
        67.685,
        67.752,
        67.815,
        67.886,
        68.251,
        68.412,
        68.519,
        70.484,
        70.835,
        70.909,
        70.96,
        71.038,
        71.595,
        71.65,
        71.746,
        71.93,
        71.985,
        72.312,
        72.514,
        72.594,
        72.845,
        73.072,
        73.342,
        73.881,
        75.213,
        75.278,
        76.032,
        76.106,
        76.547,
        76.613,
        77.915,
        77.982,
        78.786,
        78.918,
        79.243,
        79.448,
        79.582,
        79.655,
        79.847,
        79.95,
        79.991,
        80.146,
        80.204,
        80.259,
        80.468,
        80.756,
        80.921,
        81.272,
        81.42,
        82.043,
        82.557,
        82.604,
        82.668,
        82.826,
        82.884,
        82.98,
        83.159,
        83.225,
        83.315,
        83.867,
        84.122,
        84.244,
        84.347,
        85.089,
        85.408,
        85.508,
        86.002,
        86.092,
        86.405,
        86.47,
        86.535,
        86.613,
        86.828,
        86.879,
        87.711,
        87.801,
        89.079,
        89.195,
        89.37,
        89.662,
        89.742,
        90.316,
        90.377,
        90.456,
        90.522,
        90.605,
        91.727,
        91.812,
        91.91,
        91.976,
        92.264,
        92.869,
        93.243,
        93.345,
        93.383,
        93.45,
        93.981,
        94.098,
        94.153,
        94.532,
        94.596,
        94.95,
        95.005,
        95.066,
        95.311,
        95.376,
        95.693,
        95.75,
        95.875,
        95.908,
        95.97,
        96.108,
        96.489,
        98.12
      ],
      [
        98.12,
        98.176,
        98.214,
        98.296,
        98.368,
        98.481,
        98.571,
        98.584,
        98.604,
        99.089,
        99.314,
        99.854,
        99.978,
        100.023,
        100.134,
        100.226,
        100.69,
        101.764,
        101.97,
        102.161,
        102.485,
        103.028,
        103.253,
        103.493,
        103.999,
        104.103,
        104.163,
        104.459,
        104.47,
        104.565,
        104.588,
        105.242,
        105.37,
        105.428,
        105.792
      ],
      [
        105.792,
        105.797,
        105.968,
        106.182,
        106.327,
        106.888,
        107.262,
        107.641,
        107.858,
        108.0,
        108.224,
        108.485,
        108.59,
        108.948,
        109.07,
        109.264,
        109.514,
        110.15,
        110.934,
        111.162,
        111.456,
        111.572,
        111.749,
        111.893,
        112.212,
        112.511,
        112.904,
        113.099,
        113.467,
        113.599,
        114.038,
        114.678,
        115.055,
        115.254,
        115.556,
        115.69,
        115.778,
        115.951,
        116.201,
        116.285,
        116.369,
        116.58,
        116.936,
        117.026,
        117.225
      ],
      [
        117.225,
        117.285,
        117.315,
        117.426,
        117.618,
        117.683,
        117.809,
        117.943,
        118.062,
        118.203,
        118.334,
        118.476,
        118.842,
        119.081,
        119.197,
        119.694,
        119.964,
        120.244,
        120.48,
        120.897,
        121.259,
        121.411,
        121.682,
        121.835,
        122.08,
        122.23,
        122.421,
        122.537,
        122.661,
        122.741,
        122.907,
        123.004,
        123.196,
        123.415,
        123.488,
        123.793,
        123.953,
        123.974,
        123.989,
        124.164,
        124.304,
        124.359,
        124.455,
        124.522,
        124.589,
        124.707,
        125.007,
        125.446,
        126.062,
        126.124,
        126.269,
        126.398,
        126.485,
        126.617,
        126.899,
        126.995,
        127.449,
        127.533
      ],
      [
        127.533,
        127.581,
        127.682,
        127.985,
        128.257,
        128.723,
        128.87,
        129.12,
        129.15,
        129.357,
        129.503,
        129.655,
        129.703,
        129.766,
        129.809,
        129.845,
        129.911,
        129.964,
        130.034,
        130.172,
        130.69,
        130.765
      ],
      [
        130.765,
        131.279,
        131.392,
        131.484,
        131.637,
        131.892,
        132.119,
        132.438,
        132.48,
        132.656,
        132.814,
        132.9,
        133.114,
        133.228,
        133.367,
        133.558,
        133.694,
        133.829,
        134.006,
        134.133,
        134.399,
        134.536,
        134.775,
        134.952,
        135.657,
        136.12,
        136.665,
        136.799,
        137.181,
        137.434,
        137.546,
        137.663,
        137.737,
        138.201,
        138.335,
        138.388,
        138.643,
        138.73,
        139.237,
        139.433,
        139.714,
        139.846,
        140.41,
        140.461,
        140.622,
        140.696,
        140.806,
        140.871,
        141.883,
        141.98,
        142.178,
        142.281,
        142.997,
        143.119,
        143.23,
        143.331,
        143.46,
        144.877,
        145.187,
        145.751,
        145.88,
        146.108,
        146.245,
        146.311,
        146.41,
        146.488,
        146.942,
        147.028,
        147.225,
        147.632,
        148.238,
        148.514,
        148.7,
        150.138,
        150.268,
        150.681,
        151.964,
        152.974,
        153.021,
        153.485,
        153.615,
        154.089,
        154.837,
        155.625,
        155.991,
        157.053,
        157.786,
        158.035,
        158.096,
        158.62,
        159.008,
        159.754,
        159.933,
        160.225,
        161.052,
        161.5,
        161.739,
        162.339,
        162.448,
        164.236,
        164.426,
        164.532,
        165.302,
        165.896,
        166.107,
        166.807,
        167.051,
        168.052,
        168.129,
        168.478,
        169.408,
        169.488,
        169.639,
        169.759,
        169.916,
        170.213,
        170.623,
        170.887,
        171.674,
        171.73,
        172.113,
        172.16,
        172.95,
        173.356,
        173.427,
        173.519,
        173.916,
        173.958,
        174.146,
        174.584,
        174.68,
        174.873,
        174.916,
        174.955,
        175.494,
        175.588,
        175.634,
        176.137,
        176.184,
        176.363,
        176.423,
        176.787,
        177.025,
        177.091,
        177.85,
        178.004,
        178.207,
        178.282,
        178.45,
        178.675,
        178.896,
        179.158,
        179.366,
        179.495,
        179.961,
        180.081,
        180.495,
        180.773,
        180.839,
        181.169,
        181.321,
        181.396,
        181.535,
        181.593,
        181.679,
        181.758,
        182.349,
        182.447,
        182.716,
        182.849,
        183.513,
        183.692,
        184.605,
        184.704,
        184.755,
        184.863,
        184.95,
        185.105,
        185.198,
        185.289,
        185.356,
        185.416,
        185.488,
        185.651,
        185.67,
        185.778,
        185.856,
        185.973,
        186.108,
        186.566
      ]
    ]
  },
  "geometry": {
    "type": "MultiLineString",
    "coordinates": [
      [
        [
          26.071514,
          66.461705
        ],
        [
          26.07154,
          66.46192
        ],
        [
          26.07248,
          66.462469
        ],
        [
          26.07322,
          66.46447
        ],
        [
          26.07428,
          66.46593
        ],
        [
          26.075209,
          66.46664
        ],
        [
          26.07742,
          66.46778
        ],
        [
          26.07948,
          66.468459
        ],
        [
          26.08552,
          66.469579
        ],
        [
          26.097359,
          66.469669
        ],
        [
          26.098859,
          66.46951
        ],
        [
          26.10201,
          66.4688
        ],
        [
          26.10383,
          66.46877
        ],
        [
          26.117439,
          66.47047
        ],
        [
          26.12201,
          66.47067
        ],
        [
          26.12339,
          66.47096
        ],
        [
          26.12451,
          66.47141
        ],
        [
          26.126169,
          66.473
        ],
        [
          26.12641,
          66.47364
        ],
        [
          26.12565,
          66.47784
        ],
        [
          26.12463,
          66.479429
        ],
        [
          26.12458,
          66.47996
        ],
        [
          26.12553,
          66.482699
        ],
        [
          26.12541,
          66.48344
        ],
        [
          26.12475,
          66.48421
        ],
        [
          26.12153,
          66.48572
        ],
        [
          26.11953,
          66.48688
        ],
        [
          26.11868,
          66.4877
        ],
        [
          26.11832,
          66.48827
        ],
        [
          26.118099,
          66.48912
        ],
        [
          26.11858,
          66.49199
        ],
        [
          26.11879,
          66.49223
        ],
        [
          26.12324,
          66.49325
        ],
        [
          26.12463,
          66.49328
        ],
        [
          26.13021,
          66.49212
        ],
        [
          26.13215,
          66.49087
        ],
        [
          26.13387,
          66.49115
        ],
        [
          26.13435,
          66.49145
        ],
        [
          26.13597,
          66.49518
        ],
        [
          26.13676,
          66.49572
        ],
        [
          26.138839,
          66.49651
        ],
        [
          26.145029,
          66.49706
        ],
        [
          26.15445,
          66.50078
        ],
        [
          26.15996,
          66.50507
        ],
        [
          26.17071,
          66.50936
        ],
        [
          26.17125,
          66.50966
        ],
        [
          26.17186,
          66.51088
        ],
        [
          26.1722,
          66.511089
        ],
        [
          26.18164,
          66.51414
        ],
        [
          26.18988,
          66.51506
        ],
        [
          26.19121,
          66.51493
        ],
        [
          26.19928,
          66.512739
        ],
        [
          26.20086,
          66.51266
        ],
        [
          26.22659,
          66.51699
        ],
        [
          26.23469,
          66.51582
        ],
        [
          26.23914,
          66.51564
        ],
        [
          26.244,
          66.51513
        ],
        [
          26.25209,
          66.51474
        ],
        [
          26.25487,
          66.514169
        ],
        [
          26.26,
          66.51344
        ],
        [
          26.26644,
          66.5137
        ],
        [
          26.26789,
          66.51347
        ],
        [
          26.26883,
          66.5128
        ],
        [
          26.26995,
          66.512559
        ],
        [
          26.27302,
          66.51266
        ],
        [
          26.27481,
          66.512209
        ],
        [
          26.27906,
          66.512209
        ],
        [
          26.28188,
          66.513319
        ],
        [
          26.2833,
          66.51349
        ],
        [
          26.28465,
          66.513239
        ],
        [
          26.2906,
          66.511129
        ],
        [
          26.29344,
          66.5104
        ],
        [
          26.299589,
          66.50968
        ],
        [
          26.3016,
          66.509289
        ],
        [
          26.30492,
          66.50784
        ],
        [
          26.307289,
          66.50709
        ],
        [
          26.310569,
          66.50564
        ],
        [
          26.31173,
          66.50533
        ],
        [
          26.3154,
          66.50557
        ],
        [
          26.31793,
          66.506379
        ],
        [
          26.32639,
          66.50604
        ],
        [
          26.33042,
          66.50732
        ],
        [
          26.33763,
          66.50703
        ],
        [
          26.34048,
          66.50671
        ],
        [
          26.346229,
          66.50672
        ],
        [
          26.349989,
          66.507589
        ],
        [
          26.35159,
          66.509
        ],
        [
          26.35357,
          66.50959
        ],
        [
          26.35801,
          66.51009
        ],
        [
          26.36291,
          66.50976
        ],
        [
          26.36336,
          66.50962
        ],
        [
          26.36469,
          66.50848
        ],
        [
          26.36737,
          66.507729
        ],
        [
          26.37583,
          66.50686
        ],
        [
          26.38117,
          66.505759
        ],
        [
          26.39049,
          66.50498
        ],
        [
          26.3963,
          66.50517
        ],
        [
          26.40093,
          66.50467
        ],
        [
          26.41144,
          66.50261
        ],
        [
          26.413049,
          66.50194
        ],
        [
          26.41445,
          66.50095
        ],
        [
          26.41846,
          66.49965
        ],
        [
          26.41992,
          66.49834
        ],
        [
          26.42241,
          66.498189
        ],
        [
          26.43194,
          66.49875
        ],
        [
          26.43558,
          66.49836
        ],
        [
          26.43757,
          66.49745
        ],
        [
          26.44155,
          66.49489
        ],
        [
          26.44395,
          66.49356
        ],
        [
          26.44696,
          66.49294
        ],
        [
          26.45357,
          66.492189
        ],
        [
          26.47932,
          66.489999
        ],
        [
          26.518975,
          66.487655
        ],
        [
          26.531248,
          66.485164
        ],
        [
          26.541677,
          66.484559
        ],
        [
          26.551075,
          66.485014
        ],
        [
          26.568155,
          66.483185
        ],
        [
          26.572919,
          66.48186
        ],
        [
          26.57034,
          66.49066
        ],
        [
          26.56951,
          66.492419
        ],
        [
          26.56807,
          66.49388
        ],
        [
          26.56615,
          66.49514
        ],
        [
          26.564,
          66.49617
        ],
        [
          26.560009,
          66.49767
        ],
        [
          26.56668,
          66.500609
        ],
        [
          26.56889,
          66.50234
        ],
        [
          26.57002,
          66.50296
        ],
        [
          26.57336,
          66.504239
        ],
        [
          26.57625,
          66.50659
        ],
        [
          26.57789,
          66.5116
        ],
        [
          26.58471,
          66.51909
        ],
        [
          26.58473,
          66.519679
        ],
        [
          26.58395,
          66.52303
        ],
        [
          26.584129,
          66.52359
        ],
        [
          26.58464,
          66.524159
        ],
        [
          26.585719,
          66.52478
        ],
        [
          26.58687,
          66.52517
        ],
        [
          26.59857,
          66.52701
        ],
        [
          26.60816,
          66.52506
        ],
        [
          26.61189,
          66.52469
        ],
        [
          26.61752,
          66.524789
        ],
        [
          26.62554,
          66.52575
        ],
        [
          26.63393,
          66.52569
        ],
        [
          26.6362,
          66.525409
        ],
        [
          26.63766,
          66.524959
        ],
        [
          26.6404,
          66.52359
        ],
        [
          26.64265,
          66.52301
        ],
        [
          26.65719,
          66.52091
        ],
        [
          26.65913,
          66.52042
        ],
        [
          26.66046,
          66.51975
        ],
        [
          26.6612,
          66.51907
        ],
        [
          26.6614,
          66.51842
        ],
        [
          26.660889,
          66.51605
        ],
        [
          26.66114,
          66.51553
        ],
        [
          26.66167,
          66.515159
        ],
        [
          26.66904,
          66.512829
        ],
        [
          26.673369,
          66.51205
        ],
        [
          26.68888,
          66.511089
        ],
        [
          26.70764,
          66.508579
        ],
        [
          26.72937,
          66.50738
        ],
        [
          26.73417,
          66.50658
        ],
        [
          26.74665,
          66.503789
        ],
        [
          26.74943,
          66.50349
        ],
        [
          26.75298,
          66.503479
        ],
        [
          26.75589,
          66.50449
        ],
        [
          26.76148,
          66.50519
        ],
        [
          26.76355,
          66.50521
        ],
        [
          26.76784,
          66.504819
        ],
        [
          26.77634,
          66.50337
        ],
        [
          26.78093,
          66.50297
        ],
        [
          26.78661,
          66.503029
        ],
        [
          26.79409,
          66.50414
        ],
        [
          26.79681,
          66.50427
        ],
        [
          26.80719,
          66.50349
        ],
        [
          26.80962,
          66.50305
        ],
        [
          26.81274,
          66.502039
        ],
        [
          26.81556,
          66.50158
        ],
        [
          26.826709,
          66.50156
        ],
        [
          26.82817,
          66.501329
        ],
        [
          26.83237,
          66.49979
        ],
        [
          26.8357,
          66.498999
        ],
        [
          26.84956,
          66.49818
        ],
        [
          26.85748,
          66.49651
        ],
        [
          26.86318,
          66.49657
        ],
        [
          26.86486,
          66.49624
        ],
        [
          26.86901,
          66.49471
        ],
        [
          26.87263,
          66.49432
        ],
        [
          26.87709,
          66.494649
        ],
        [
          26.88069,
          66.49547
        ],
        [
          26.87947,
          66.49675
        ],
        [
          26.87812,
          66.49881
        ],
        [
          26.87778,
          66.49974
        ],
        [
          26.87794,
          66.50032
        ],
        [
          26.87833,
          66.50114
        ],
        [
          26.88037,
          66.50362
        ],
        [
          26.8858,
          66.50868
        ],
        [
          26.88516,
          66.50963
        ],
        [
          26.88284,
          66.51011
        ],
        [
          26.87537,
          66.51093
        ],
        [
          26.87323,
          66.5113
        ],
        [
          26.87084,
          66.51196
        ],
        [
          26.86748,
          66.5119
        ],
        [
          26.86454,
          66.513059
        ],
        [
          26.86447,
          66.51361
        ],
        [
          26.8652,
          66.51496
        ],
        [
          26.86507,
          66.51535
        ],
        [
          26.86435,
          66.51589
        ],
        [
          26.86423,
          66.516189
        ],
        [
          26.86721,
          66.51728
        ],
        [
          26.86866,
          66.518649
        ],
        [
          26.86871,
          66.519229
        ],
        [
          26.86808,
          66.521429
        ],
        [
          26.87682,
          66.521429
        ],
        [
          26.88167,
          66.52172
        ],
        [
          26.89181,
          66.5206
        ],
        [
          26.89732,
          66.52019
        ],
        [
          26.90035,
          66.52023
        ],
        [
          26.90588,
          66.51943
        ],
        [
          26.90768,
          66.51885
        ],
        [
          26.91531,
          66.51831
        ],
        [
          26.91869,
          66.517669
        ],
        [
          26.92876,
          66.51657
        ],
        [
          26.93108,
          66.51602
        ],
        [
          26.93202,
          66.51596
        ],
        [
          26.93348,
          66.51609
        ],
        [
          26.93451,
          66.51685
        ],
        [
          26.93597,
          66.51746
        ],
        [
          26.93863,
          66.5176
        ],
        [
          26.94919,
          66.51685
        ],
        [
          26.9595,
          66.51777
        ],
        [
          26.96617,
          66.51741
        ],
        [
          26.96871,
          66.51747
        ],
        [
          26.9882,
          66.515739
        ],
        [
          26.99053,
          66.51566
        ],
        [
          26.99427,
          66.51571
        ],
        [
          27.00794,
          66.51694
        ],
        [
          27.0319,
          66.516859
        ],
        [
          27.01981,
          66.524109
        ],
        [
          27.01562,
          66.52571
        ],
        [
          26.97428,
          66.5373
        ],
        [
          26.96905,
          66.53846
        ],
        [
          26.95161,
          66.54137
        ],
        [
          26.94693,
          66.54262
        ],
        [
          26.94172,
          66.544749
        ],
        [
          26.93981,
          66.54579
        ],
        [
          26.93266,
          66.55063
        ],
        [
          26.93144,
          66.551599
        ],
        [
          26.92948,
          66.55381
        ],
        [
          26.92469,
          66.562169
        ],
        [
          26.92664,
          66.563109
        ],
        [
          26.92723,
          66.56367
        ],
        [
          26.92746,
          66.56422
        ],
        [
          26.92741,
          66.564859
        ],
        [
          26.92622,
          66.5681
        ],
        [
          26.92941,
          66.56878
        ],
        [
          26.93178,
          66.56896
        ],
        [
          26.97605,
          66.56879
        ],
        [
          26.98367,
          66.56964
        ],
        [
          26.98489,
          66.57008
        ],
        [
          26.98541,
          66.57049
        ],
        [
          26.98577,
          66.57118
        ],
        [
          26.98672,
          66.57616
        ],
        [
          26.98698,
          66.57664
        ],
        [
          26.98817,
          66.57736
        ],
        [
          26.99185,
          66.578109
        ],
        [
          26.99172,
          66.578599
        ],
        [
          26.9892,
          66.58136
        ],
        [
          26.98909,
          66.583169
        ],
        [
          26.98825,
          66.5838
        ],
        [
          26.9849,
          66.58562
        ],
        [
          26.98019,
          66.58642
        ],
        [
          26.97533,
          66.58788
        ],
        [
          26.97126,
          66.592429
        ],
        [
          26.99811,
          66.59779
        ],
        [
          26.99878,
          66.59831
        ],
        [
          27.00417,
          66.60472
        ],
        [
          27.00551,
          66.605109
        ],
        [
          27.01485,
          66.606489
        ],
        [
          27.01542,
          66.607029
        ],
        [
          27.01598,
          66.618709
        ],
        [
          27.01643,
          66.61928
        ],
        [
          27.02493,
          66.625649
        ],
        [
          27.02785,
          66.62591
        ],
        [
          27.0351,
          66.625519
        ],
        [
          27.03959,
          66.62599
        ],
        [
          27.04261,
          66.62594
        ],
        [
          27.04403,
          66.626279
        ],
        [
          27.0458,
          66.627849
        ],
        [
          27.04645,
          66.62873
        ],
        [
          27.04626,
          66.62909
        ],
        [
          27.04429,
          66.63024
        ],
        [
          27.04416,
          66.630759
        ],
        [
          27.0453,
          66.63095
        ],
        [
          27.04999,
          66.63117
        ],
        [
          27.05506,
          66.63279
        ],
        [
          27.05604,
          66.63422
        ],
        [
          27.05648,
          66.63736
        ],
        [
          27.0575,
          66.63862
        ],
        [
          27.06474,
          66.64342
        ],
        [
          27.06829,
          66.6478
        ],
        [
          27.06876,
          66.64818
        ],
        [
          27.06977,
          66.6486
        ],
        [
          27.07085,
          66.64995
        ],
        [
          27.07166,
          66.65035
        ],
        [
          27.07355,
          66.65078
        ],
        [
          27.07758,
          66.65063
        ],
        [
          27.07789,
          66.650049
        ],
        [
          27.07871,
          66.64931
        ],
        [
          27.08463,
          66.64496
        ],
        [
          27.08687,
          66.642849
        ],
        [
          27.08846,
          66.64196
        ],
        [
          27.09018,
          66.64134
        ],
        [
          27.1053,
          66.63845
        ],
        [
          27.1108,
          66.63661
        ],
        [
          27.11203,
          66.635859
        ],
        [
          27.12238,
          66.63753
        ],
        [
          27.12343,
          66.63822
        ],
        [
          27.12621,
          66.6408
        ],
        [
          27.12676,
          66.64134
        ],
        [
          27.12705,
          66.641909
        ],
        [
          27.12692,
          66.64261
        ],
        [
          27.12544,
          66.64444
        ],
        [
          27.12537,
          66.6449
        ],
        [
          27.1294,
          66.65219
        ],
        [
          27.13106,
          66.652649
        ],
        [
          27.1587,
          66.65599
        ],
        [
          27.16032,
          66.656809
        ],
        [
          27.16131,
          66.65833
        ],
        [
          27.16577,
          66.660259
        ],
        [
          27.16726,
          66.660659
        ],
        [
          27.18025,
          66.660529
        ],
        [
          27.1816,
          66.660619
        ],
        [
          27.1831,
          66.66101
        ],
        [
          27.1841,
          66.66145
        ],
        [
          27.18476,
          66.662139
        ],
        [
          27.18688,
          66.672169
        ],
        [
          27.18761,
          66.67287
        ],
        [
          27.1893,
          66.67344
        ],
        [
          27.19073,
          66.67363
        ],
        [
          27.19714,
          66.67317
        ],
        [
          27.20943,
          66.67555
        ],
        [
          27.21789,
          66.67574
        ],
        [
          27.22004,
          66.676069
        ],
        [
          27.2207,
          66.676289
        ],
        [
          27.22144,
          66.67681
        ],
        [
          27.22523,
          66.68133
        ],
        [
          27.22637,
          66.68227
        ],
        [
          27.22708,
          66.68268
        ],
        [
          27.23335,
          66.685
        ],
        [
          27.23347,
          66.68557
        ],
        [
          27.23096,
          66.68859
        ],
        [
          27.23083,
          66.68908
        ],
        [
          27.23122,
          66.6896
        ],
        [
          27.23399,
          66.691509
        ],
        [
          27.2339,
          66.692089
        ],
        [
          27.22935,
          66.69428
        ],
        [
          27.22943,
          66.69479
        ],
        [
          27.23001,
          66.69589
        ],
        [
          27.22999,
          66.69619
        ],
        [
          27.2296,
          66.69672
        ],
        [
          27.22812,
          66.69781
        ],
        [
          27.22008,
          66.696569
        ],
        [
          27.212885,
          66.710911
        ]
      ],
      [
        [
          25.594403,
          66.462845
        ],
        [
          25.593574,
          66.462458
        ],
        [
          25.593509,
          66.462126
        ],
        [
          25.592669,
          66.46147
        ],
        [
          25.59427,
          66.461569
        ],
        [
          25.59636,
          66.46214
        ],
        [
          25.59818,
          66.46178
        ],
        [
          25.59832,
          66.461879
        ],
        [
          25.59808,
          66.46203
        ],
        [
          25.60622,
          66.46492
        ],
        [
          25.60939,
          66.466489
        ],
        [
          25.61516,
          66.47074
        ],
        [
          25.616689,
          66.47167
        ],
        [
          25.61751,
          66.471909
        ],
        [
          25.6187,
          66.47278
        ],
        [
          25.61902,
          66.4736
        ],
        [
          25.6244,
          66.47716
        ],
        [
          25.64171,
          66.48386
        ],
        [
          25.64581,
          66.484719
        ],
        [
          25.64994,
          66.4852
        ],
        [
          25.65711,
          66.484719
        ],
        [
          25.66876,
          66.4833
        ],
        [
          25.67377,
          66.483019
        ],
        [
          25.67915,
          66.48308
        ],
        [
          25.69044,
          66.483599
        ],
        [
          25.6927,
          66.48384
        ],
        [
          25.69382,
          66.484129
        ],
        [
          25.6975,
          66.48634
        ],
        [
          25.69772,
          66.48629
        ],
        [
          25.698989,
          66.48697
        ],
        [
          25.6995,
          66.486999
        ],
        [
          25.707249,
          66.49198
        ],
        [
          25.70945,
          66.49272
        ],
        [
          25.71019,
          66.49315
        ],
        [
          25.714099,
          66.49602
        ]
      ],
      [
        [
          25.921218,
          66.497248
        ],
        [
          25.92124,
          66.49729
        ],
        [
          25.92493,
          66.496849
        ],
        [
          25.9297,
          66.49664
        ],
        [
          25.93281,
          66.496269
        ],
        [
          25.94468,
          66.494569
        ],
        [
          25.951339,
          66.49252
        ],
        [
          25.95864,
          66.49078
        ],
        [
          25.96261,
          66.48965
        ],
        [
          25.96478,
          66.48872
        ],
        [
          25.96755,
          66.487039
        ],
        [
          25.97137,
          66.48527
        ],
        [
          25.97347,
          66.48483
        ],
        [
          25.98116,
          66.48392
        ],
        [
          25.98345,
          66.48332
        ],
        [
          25.98673,
          66.48217
        ],
        [
          25.99065,
          66.48056
        ],
        [
          25.999289,
          66.476029
        ],
        [
          26.00851,
          66.47004
        ],
        [
          26.01229,
          66.46866
        ],
        [
          26.01782,
          66.46722
        ],
        [
          26.019279,
          66.466359
        ],
        [
          26.02074,
          66.464879
        ],
        [
          26.02288,
          66.46392
        ],
        [
          26.02887,
          66.46235
        ],
        [
          26.0348,
          66.46109
        ],
        [
          26.04191,
          66.45901
        ],
        [
          26.04608,
          66.458479
        ],
        [
          26.05423,
          66.45801
        ],
        [
          26.05693,
          66.45752
        ],
        [
          26.06455,
          66.45502
        ],
        [
          26.074356,
          66.450827
        ],
        [
          26.081909,
          66.44931
        ],
        [
          26.085342,
          66.448172
        ],
        [
          26.09011,
          66.45009
        ],
        [
          26.09118,
          66.45121
        ],
        [
          26.09111,
          66.452
        ],
        [
          26.08973,
          66.45345
        ],
        [
          26.0872,
          66.45545
        ],
        [
          26.08665,
          66.45617
        ],
        [
          26.08579,
          66.45684
        ],
        [
          26.08296,
          66.45836
        ],
        [
          26.07734,
          66.460629
        ],
        [
          26.07575,
          66.461119
        ],
        [
          26.071514,
          66.461705
        ]
      ],
      [
        [
          25.782866,
          66.497476
        ],
        [
          25.78415,
          66.49732
        ],
        [
          25.78459,
          66.497119
        ],
        [
          25.78708,
          66.4971
        ],
        [
          25.7909,
          66.4963
        ],
        [
          25.79232,
          66.49617
        ],
        [
          25.79516,
          66.49617
        ],
        [
          25.79805,
          66.49584
        ],
        [
          25.80071,
          66.49596
        ],
        [
          25.80376,
          66.49562
        ],
        [
          25.80624,
          66.49499
        ],
        [
          25.80919,
          66.4945
        ],
        [
          25.81729,
          66.49396
        ],
        [
          25.82173,
          66.49275
        ],
        [
          25.82364,
          66.49205
        ],
        [
          25.83434,
          66.490759
        ],
        [
          25.84039,
          66.490759
        ],
        [
          25.84626,
          66.48985
        ],
        [
          25.85058,
          66.48863
        ],
        [
          25.85899,
          66.48699
        ],
        [
          25.8658,
          66.485209
        ],
        [
          25.86884,
          66.48459
        ],
        [
          25.87348,
          66.483019
        ],
        [
          25.87644,
          66.48232
        ],
        [
          25.88169,
          66.48169
        ],
        [
          25.88427,
          66.480819
        ],
        [
          25.88839,
          66.48034
        ],
        [
          25.89038,
          66.47967
        ],
        [
          25.89183,
          66.478719
        ],
        [
          25.89315,
          66.47823
        ],
        [
          25.89613,
          66.47734
        ],
        [
          25.89761,
          66.47671
        ],
        [
          25.90125,
          66.47579
        ],
        [
          25.90578,
          66.47501
        ],
        [
          25.9074,
          66.47492
        ],
        [
          25.91347,
          66.473659
        ],
        [
          25.91688,
          66.473209
        ],
        [
          25.9172,
          66.47307
        ],
        [
          25.91712,
          66.472939
        ],
        [
          25.92005,
          66.4719
        ],
        [
          25.92294,
          66.4714
        ],
        [
          25.92415,
          66.47149
        ],
        [
          25.92579,
          66.472049
        ],
        [
          25.9272,
          66.47226
        ],
        [
          25.92687,
          66.472849
        ],
        [
          25.92756,
          66.47387
        ],
        [
          25.93221,
          66.475809
        ],
        [
          25.928629,
          66.479479
        ],
        [
          25.92282,
          66.484489
        ],
        [
          25.922809,
          66.48505
        ],
        [
          25.92391,
          66.48627
        ],
        [
          25.92364,
          66.48742
        ],
        [
          25.92318,
          66.48818
        ],
        [
          25.92161,
          66.48918
        ],
        [
          25.91974,
          66.4916
        ],
        [
          25.91978,
          66.492459
        ],
        [
          25.920839,
          66.49651
        ],
        [
          25.921218,
          66.497248
        ]
      ],
      [
        [
          25.715646,
          66.496967
        ],
        [
          25.716349,
          66.497299
        ],
        [
          25.71807,
          66.49672
        ],
        [
          25.72451,
          66.495819
        ],
        [
          25.73057,
          66.49558
        ],
        [
          25.74089,
          66.49629
        ],
        [
          25.74417,
          66.496129
        ],
        [
          25.74962,
          66.496669
        ],
        [
          25.75017,
          66.49651
        ],
        [
          25.75475,
          66.496799
        ],
        [
          25.75804,
          66.49672
        ],
        [
          25.76131,
          66.49633
        ],
        [
          25.76164,
          66.49674
        ],
        [
          25.76304,
          66.49674
        ],
        [
          25.7638,
          66.49699
        ],
        [
          25.764209,
          66.49726
        ],
        [
          25.764309,
          66.49785
        ],
        [
          25.7651,
          66.49821
        ],
        [
          25.76664,
          66.49809
        ],
        [
          25.76971,
          66.49825
        ],
        [
          25.78127,
          66.49767
        ],
        [
          25.782866,
          66.497476
        ]
      ],
      [
        [
          24.656153,
          66.533781
        ],
        [
          24.64833,
          66.530379
        ],
        [
          24.65012,
          66.529669
        ],
        [
          24.6522,
          66.52959
        ],
        [
          24.65514,
          66.52889
        ],
        [
          24.660889,
          66.52883
        ],
        [
          24.66563,
          66.529579
        ],
        [
          24.67209,
          66.52834
        ],
        [
          24.67274,
          66.52807
        ],
        [
          24.67387,
          66.52655
        ],
        [
          24.67585,
          66.52538
        ],
        [
          24.67754,
          66.525
        ],
        [
          24.68235,
          66.52504
        ],
        [
          24.68476,
          66.524699
        ],
        [
          24.68597,
          66.52355
        ],
        [
          24.68893,
          66.52231
        ],
        [
          24.690169,
          66.52119
        ],
        [
          24.69171,
          66.52015
        ],
        [
          24.69456,
          66.51904
        ],
        [
          24.69708,
          66.5185
        ],
        [
          24.70286,
          66.517889
        ],
        [
          24.70559,
          66.51732
        ],
        [
          24.71065,
          66.518029
        ],
        [
          24.71402,
          66.51887
        ],
        [
          24.72981,
          66.51831
        ],
        [
          24.7358,
          66.51491
        ],
        [
          24.74095,
          66.51048
        ],
        [
          24.74192,
          66.509339
        ],
        [
          24.74247,
          66.50592
        ],
        [
          24.74446,
          66.5038
        ],
        [
          24.74491,
          66.50281
        ],
        [
          24.74631,
          66.50192
        ],
        [
          24.74752,
          66.50147
        ],
        [
          24.7572,
          66.49992
        ],
        [
          24.75914,
          66.498999
        ],
        [
          24.75948,
          66.498549
        ],
        [
          24.76044,
          66.49629
        ],
        [
          24.76174,
          66.49571
        ],
        [
          24.7702,
          66.49267
        ],
        [
          24.77427,
          66.492
        ],
        [
          24.77963,
          66.49066
        ],
        [
          24.78236,
          66.4902
        ],
        [
          24.794339,
          66.49184
        ],
        [
          24.79505,
          66.4922
        ],
        [
          24.79633,
          66.49355
        ],
        [
          24.79712,
          66.49413
        ],
        [
          24.79849,
          66.49495
        ],
        [
          24.79964,
          66.49532
        ],
        [
          24.82157,
          66.49769
        ],
        [
          24.82374,
          66.497699
        ],
        [
          24.82792,
          66.49708
        ],
        [
          24.83022,
          66.497
        ],
        [
          24.84571,
          66.49874
        ],
        [
          24.84826,
          66.499129
        ],
        [
          24.85032,
          66.49969
        ],
        [
          24.85179,
          66.50038
        ],
        [
          24.853179,
          66.5014
        ],
        [
          24.8655,
          66.51312
        ],
        [
          24.86998,
          66.51524
        ],
        [
          24.8752,
          66.51985
        ],
        [
          24.87735,
          66.52063
        ],
        [
          24.88214,
          66.52135
        ],
        [
          24.884799,
          66.52198
        ],
        [
          24.88591,
          66.522369
        ],
        [
          24.88706,
          66.523129
        ],
        [
          24.88746,
          66.52381
        ],
        [
          24.88732,
          66.527879
        ],
        [
          24.88751,
          66.52865
        ],
        [
          24.88929,
          66.53027
        ],
        [
          24.89348,
          66.53351
        ],
        [
          24.90696,
          66.53269
        ],
        [
          24.91316,
          66.53281
        ],
        [
          24.91726,
          66.532489
        ],
        [
          24.94558,
          66.52625
        ],
        [
          24.94849,
          66.52619
        ],
        [
          24.95775,
          66.52652
        ],
        [
          24.98524,
          66.52305
        ],
        [
          25.00784,
          66.524
        ],
        [
          25.00883,
          66.52386
        ],
        [
          25.017119,
          66.521339
        ],
        [
          25.01981,
          66.52087
        ],
        [
          25.030069,
          66.51971
        ],
        [
          25.04465,
          66.51638
        ],
        [
          25.05504,
          66.51066
        ],
        [
          25.0618,
          66.50878
        ],
        [
          25.074179,
          66.50064
        ],
        [
          25.086659,
          66.496359
        ],
        [
          25.08824,
          66.494209
        ],
        [
          25.08912,
          66.493799
        ],
        [
          25.1005,
          66.49259
        ],
        [
          25.10855,
          66.49126
        ],
        [
          25.12529,
          66.490939
        ],
        [
          25.12916,
          66.49051
        ],
        [
          25.1351,
          66.48941
        ],
        [
          25.1511,
          66.48564
        ],
        [
          25.157889,
          66.48268
        ],
        [
          25.16235,
          66.48148
        ],
        [
          25.17155,
          66.477549
        ],
        [
          25.17358,
          66.47701
        ],
        [
          25.21306,
          66.47413
        ],
        [
          25.2173,
          66.474019
        ],
        [
          25.21946,
          66.473609
        ],
        [
          25.23349,
          66.469579
        ],
        [
          25.24551,
          66.46727
        ],
        [
          25.25022,
          66.46711
        ],
        [
          25.26588,
          66.46753
        ],
        [
          25.27103,
          66.46678
        ],
        [
          25.29347,
          66.46643
        ],
        [
          25.29512,
          66.46622
        ],
        [
          25.30153,
          66.464429
        ],
        [
          25.31437,
          66.45786
        ],
        [
          25.31572,
          66.45738
        ],
        [
          25.318739,
          66.45677
        ],
        [
          25.320609,
          66.45599
        ],
        [
          25.32347,
          66.45518
        ],
        [
          25.32674,
          66.45286
        ],
        [
          25.33322,
          66.45025
        ],
        [
          25.33818,
          66.44896
        ],
        [
          25.35431,
          66.4461
        ],
        [
          25.35508,
          66.4457
        ],
        [
          25.35887,
          66.44262
        ],
        [
          25.35953,
          66.44229
        ],
        [
          25.37562,
          66.43934
        ],
        [
          25.38289,
          66.43715
        ],
        [
          25.38402,
          66.4367
        ],
        [
          25.38511,
          66.436
        ],
        [
          25.38909,
          66.43282
        ],
        [
          25.38977,
          66.43309
        ],
        [
          25.39397,
          66.43304
        ],
        [
          25.40339,
          66.43415
        ],
        [
          25.40552,
          66.43423
        ],
        [
          25.40952,
          66.4349
        ],
        [
          25.410139,
          66.43519
        ],
        [
          25.410419,
          66.43552
        ],
        [
          25.41225,
          66.440299
        ],
        [
          25.41274,
          66.44112
        ],
        [
          25.41363,
          66.441329
        ],
        [
          25.42481,
          66.4419
        ],
        [
          25.42538,
          66.44226
        ],
        [
          25.42607,
          66.443839
        ],
        [
          25.4271,
          66.44418
        ],
        [
          25.43481,
          66.44526
        ],
        [
          25.43953,
          66.44625
        ],
        [
          25.44034,
          66.446749
        ],
        [
          25.44304,
          66.453469
        ],
        [
          25.44577,
          66.45431
        ],
        [
          25.44831,
          66.45582
        ],
        [
          25.44948,
          66.4563
        ],
        [
          25.45287,
          66.456959
        ],
        [
          25.456689,
          66.45828
        ],
        [
          25.46008,
          66.459729
        ],
        [
          25.46222,
          66.46192
        ],
        [
          25.46443,
          66.46356
        ],
        [
          25.4659,
          66.46456
        ],
        [
          25.47191,
          66.467969
        ],
        [
          25.47441,
          66.46839
        ],
        [
          25.483429,
          66.469269
        ],
        [
          25.48908,
          66.47032
        ],
        [
          25.49017,
          66.47072
        ],
        [
          25.49384,
          66.47329
        ],
        [
          25.49647,
          66.47416
        ],
        [
          25.49804,
          66.47441
        ],
        [
          25.50115,
          66.47449
        ],
        [
          25.50231,
          66.474729
        ],
        [
          25.50368,
          66.475269
        ],
        [
          25.505389,
          66.47546
        ],
        [
          25.51838,
          66.47439
        ],
        [
          25.52036,
          66.47401
        ],
        [
          25.5242,
          66.47215
        ],
        [
          25.526789,
          66.47156
        ],
        [
          25.54161,
          66.47096
        ],
        [
          25.54538,
          66.4704
        ],
        [
          25.561445,
          66.465318
        ],
        [
          25.563326,
          66.465791
        ],
        [
          25.564053,
          66.465445
        ],
        [
          25.566478,
          66.465502
        ],
        [
          25.568388,
          66.465322
        ],
        [
          25.571092,
          66.46445
        ],
        [
          25.572791,
          66.464935
        ],
        [
          25.571947,
          66.465678
        ],
        [
          25.572147,
          66.466273
        ],
        [
          25.572655,
          66.466774
        ],
        [
          25.574096,
          66.467048
        ],
        [
          25.577725,
          66.466854
        ],
        [
          25.577918,
          66.466703
        ],
        [
          25.580317,
          66.46657
        ],
        [
          25.581647,
          66.466114
        ],
        [
          25.584115,
          66.465751
        ],
        [
          25.587148,
          66.465749
        ],
        [
          25.594403,
          66.462845
        ]
      ]
    ]
  }
}
